{"type": "FeatureCollection", "properties": {"source": "OpenStreetMap contributors, via Nominatim", "licence": "ODbL 1.0 — https://www.openstreetmap.org/copyright"}, "features": [{"type": "Feature", "properties": {"nom": "Lille-Centre"}, "geometry": {"type": "Polygon", "coordinates": [[[3.0487014, 50.6344587], [3.0504351, 50.6335366], [3.051399, 50.6330247], [3.0517343, 50.6328469], [3.0520528, 50.6326759], [3.0521578, 50.6326194], [3.0525038, 50.6324279], [3.0590242, 50.6290257], [3.0582593, 50.6284309], [3.0576472, 50.6276571], [3.057095, 50.6269881], [3.0562578, 50.6259938], [3.0566898, 50.6259998], [3.0574567, 50.6260105], [3.057531, 50.6260115], [3.0590213, 50.6260291], [3.0591643, 50.6260318], [3.0610844, 50.6260613], [3.0611602, 50.6260625], [3.0612858, 50.6260645], [3.0612864, 50.6259868], [3.0612853, 50.6258907], [3.0612757, 50.6250716], [3.0612751, 50.6250222], [3.0612747, 50.6249717], [3.0612695, 50.6243554], [3.0612683, 50.6243361], [3.0612676, 50.624324], [3.0612651, 50.6242031], [3.0612649, 50.6241814], [3.0612646, 50.6241581], [3.0612536, 50.6229082], [3.0612537, 50.6228288], [3.0612536, 50.62281], [3.0612533, 50.6227777], [3.0612531, 50.6227498], [3.0612528, 50.6227119], [3.0612519, 50.62261], [3.0612502, 50.6224044], [3.0612489, 50.6223305], [3.0612481, 50.6222856], [3.0612476, 50.6222607], [3.0612433, 50.622157], [3.0612417, 50.6221153], [3.062704, 50.6226087], [3.0631202, 50.6227496], [3.0641899, 50.6231149], [3.064354, 50.6231654], [3.0652126, 50.6234599], [3.0658802, 50.6236786], [3.0665689, 50.623913], [3.0667674, 50.6239765], [3.0677513, 50.6242989], [3.0679962, 50.6243812], [3.0682741, 50.6244672], [3.0683737, 50.6244783], [3.0685932, 50.6244639], [3.0697212, 50.6243681], [3.0698237, 50.6243616], [3.0698489, 50.6243602], [3.0699205, 50.6243561], [3.0702489, 50.6243377], [3.070722, 50.6243115], [3.0707472, 50.6243101], [3.0708832, 50.6243026], [3.0709411, 50.6242993], [3.0709971, 50.624296], [3.0711842, 50.6242832], [3.071319, 50.6242746], [3.0713634, 50.6242723], [3.0714129, 50.6242697], [3.0715439, 50.6242621], [3.0723253, 50.6242176], [3.0726313, 50.6242008], [3.073017, 50.624181], [3.0739159, 50.6241305], [3.0750188, 50.6240689], [3.0768844, 50.6239678], [3.0770715, 50.6239576], [3.0771453, 50.6239546], [3.0773084, 50.6239497], [3.0774662, 50.6239461], [3.0777264, 50.6239401], [3.0778457, 50.6239417], [3.0787649, 50.6239409], [3.0794418, 50.6239384], [3.0799337, 50.6239727], [3.0800963, 50.6239793], [3.0802528, 50.6239839], [3.0802948, 50.6239851], [3.0804154, 50.6239859], [3.0804255, 50.624193], [3.0803735, 50.6245951], [3.0801542, 50.6251222], [3.0796251, 50.6262195], [3.0807845, 50.6264655], [3.0811083, 50.6265455], [3.0822131, 50.6267553], [3.0834733, 50.6270438], [3.0831574, 50.6276274], [3.0829372, 50.6281144], [3.0824892, 50.6292697], [3.0823605, 50.629491], [3.0822963, 50.6296741], [3.0822638, 50.629821], [3.0822501, 50.6299297], [3.0822456, 50.6300122], [3.0822603, 50.6303865], [3.0823146, 50.6307309], [3.0824988, 50.6316215], [3.0826561, 50.632325], [3.082682, 50.6324512], [3.082704, 50.6325842], [3.082714, 50.6326893], [3.0827186, 50.6327893], [3.0827153, 50.6328948], [3.0827097, 50.6329636], [3.0826932, 50.6330665], [3.0826695, 50.6331673], [3.0826468, 50.6332389], [3.0826241, 50.6333071], [3.0825821, 50.6334187], [3.0825369, 50.6335103], [3.0824837, 50.6336086], [3.0824261, 50.6336964], [3.0823527, 50.6337974], [3.0822624, 50.6339108], [3.0821666, 50.6340242], [3.081728, 50.63446], [3.081256, 50.6349514], [3.0808657, 50.6353579], [3.0800592, 50.6361993], [3.0795322, 50.6367604], [3.0785018, 50.6378298], [3.0783159, 50.6380184], [3.0771109, 50.6392686], [3.0766031, 50.6397996], [3.0761169, 50.6403039], [3.0757427, 50.6406948], [3.074682, 50.6417], [3.074649, 50.641754], [3.074575, 50.641888], [3.074512, 50.642002], [3.074385, 50.642201], [3.074306, 50.642301], [3.074273, 50.642338], [3.074202, 50.642409], [3.074141, 50.642465], [3.074073, 50.642522], [3.074001, 50.642581], [3.073934, 50.642634], [3.07387, 50.642677], [3.073851, 50.64269], [3.073774, 50.64274], [3.073743, 50.642758], [3.073702, 50.642778], [3.073588, 50.642833], [3.073516, 50.642865], [3.073406, 50.642912], [3.073032, 50.64308], [3.072685, 50.64323], [3.0725702, 50.6432773], [3.0725461, 50.6432898], [3.0720104, 50.6427481], [3.071406, 50.6420179], [3.0707475, 50.641014], [3.0702546, 50.640313], [3.0699008, 50.6400713], [3.069401, 50.639925], [3.0678504, 50.6395309], [3.0660685, 50.6390668], [3.0658843, 50.6389443], [3.0658343, 50.6388837], [3.0653264, 50.638269], [3.0646899, 50.6375464], [3.0645954, 50.6374397], [3.0637748, 50.6380798], [3.0627565, 50.6384915], [3.0623395, 50.6380866], [3.0620768, 50.6378166], [3.0620519, 50.6377783], [3.0620414, 50.6377679], [3.0620222, 50.6377781], [3.0619783, 50.6377982], [3.0618778, 50.6378442], [3.0612228, 50.6380964], [3.0612147, 50.6380993], [3.0611196, 50.6381335], [3.0610338, 50.6381678], [3.0609263, 50.638204], [3.0600583, 50.6385146], [3.05996, 50.6385498], [3.059841, 50.6385874], [3.0596805, 50.6386261], [3.0595097, 50.6386771], [3.059491, 50.6386522], [3.0584706, 50.6373551], [3.0563882, 50.6360642], [3.0563197, 50.636111], [3.0562213, 50.6361745], [3.0551394, 50.6368727], [3.0550976, 50.6369003], [3.0550925, 50.6369037], [3.0549328, 50.637006], [3.0541395, 50.637011], [3.0519415, 50.6376102], [3.0504121, 50.6361227], [3.0487014, 50.6344587]]]}}, {"type": "Feature", "properties": {"nom": "Vieux-Lille"}, "geometry": {"type": "Polygon", "coordinates": [[[3.0483704, 50.6483192], [3.048478, 50.6478715], [3.0491874, 50.6467819], [3.049475, 50.6463594], [3.0496746, 50.6461174], [3.050669, 50.6452349], [3.0528487, 50.6434498], [3.0531203, 50.6431867], [3.0532913, 50.6428904], [3.053365, 50.642645], [3.0534214, 50.6420671], [3.0534735, 50.6414245], [3.0536182, 50.639885], [3.0536158, 50.6396272], [3.053535, 50.639317], [3.0534386, 50.6391223], [3.0533187, 50.638972], [3.0529156, 50.63855], [3.0527961, 50.6384346], [3.0527487, 50.6383889], [3.0519415, 50.6376102], [3.0541395, 50.637011], [3.0549328, 50.637006], [3.0550925, 50.6369037], [3.0550976, 50.6369003], [3.0551394, 50.6368727], [3.0562213, 50.6361745], [3.0563197, 50.636111], [3.0563882, 50.6360642], [3.0584706, 50.6373551], [3.059491, 50.6386522], [3.0595097, 50.6386771], [3.0596805, 50.6386261], [3.059841, 50.6385874], [3.05996, 50.6385498], [3.0600583, 50.6385146], [3.0609263, 50.638204], [3.0610338, 50.6381678], [3.0611196, 50.6381335], [3.0612147, 50.6380993], [3.0612228, 50.6380964], [3.0618778, 50.6378442], [3.0619783, 50.6377982], [3.0620222, 50.6377781], [3.0620414, 50.6377679], [3.0620519, 50.6377783], [3.0620768, 50.6378166], [3.0623395, 50.6380866], [3.0627565, 50.6384915], [3.0637748, 50.6380798], [3.0645954, 50.6374397], [3.0646899, 50.6375464], [3.0653264, 50.638269], [3.0658343, 50.6388837], [3.0658843, 50.6389443], [3.0660685, 50.6390668], [3.0678504, 50.6395309], [3.069401, 50.639925], [3.0699008, 50.6400713], [3.0702546, 50.640313], [3.0707475, 50.641014], [3.071406, 50.6420179], [3.0720104, 50.6427481], [3.0725461, 50.6432898], [3.07249, 50.643314], [3.072441, 50.643335], [3.072374, 50.643364], [3.0722797, 50.6434108], [3.0722183, 50.6434428], [3.0720953, 50.6434899], [3.071858, 50.643658], [3.071589, 50.643902], [3.0714248, 50.6440856], [3.071179, 50.64454], [3.071016, 50.645055], [3.070954, 50.645206], [3.0710653, 50.6452864], [3.0710378, 50.6456549], [3.0710276, 50.6457896], [3.0710545, 50.6457759], [3.0710222, 50.6458339], [3.070946, 50.6459965], [3.070873, 50.646163], [3.070776, 50.646353], [3.070711, 50.646482], [3.070592, 50.646689], [3.070588, 50.646695], [3.070509, 50.646809], [3.070418, 50.646928], [3.07038, 50.64698], [3.07032, 50.647045], [3.070245, 50.647128], [3.070189, 50.647189], [3.070118, 50.647267], [3.07006, 50.647323], [3.069999, 50.647384], [3.069936, 50.647445], [3.069868, 50.647507], [3.069818, 50.647553], [3.069807, 50.647563], [3.069747, 50.64761], [3.069656, 50.647683], [3.069566, 50.647752], [3.06947, 50.647827], [3.069368, 50.6479], [3.069268, 50.647971], [3.069135, 50.648055], [3.0690408, 50.6481138], [3.0689875, 50.6481507], [3.0689678, 50.6481628], [3.068946, 50.648179], [3.0688547, 50.6482508], [3.0684303, 50.6485094], [3.0683416, 50.6485645], [3.068269, 50.64861], [3.068114, 50.648704], [3.067975, 50.648789], [3.067717, 50.648949], [3.067687, 50.648967], [3.067622, 50.649007], [3.06762, 50.649009], [3.06709, 50.649336], [3.066987, 50.649397], [3.06697, 50.649406], [3.066831, 50.649482], [3.066646, 50.649576], [3.06658, 50.649608], [3.066414, 50.649687], [3.066235, 50.649764], [3.06607, 50.649829], [3.066058, 50.649833], [3.065987, 50.64986], [3.065841, 50.649916], [3.065685, 50.649968], [3.065408, 50.650055], [3.065052, 50.650161], [3.064685, 50.650266], [3.064287, 50.650369], [3.063965, 50.650449], [3.063636, 50.650529], [3.06336, 50.650589], [3.063014, 50.650656], [3.062828, 50.65069], [3.062789, 50.650697], [3.062503, 50.650745], [3.062202, 50.650794], [3.062137, 50.650804], [3.061871, 50.650844], [3.061474, 50.650896], [3.06145, 50.650899], [3.061309, 50.650914], [3.061292, 50.650916], [3.061198, 50.650927], [3.061169, 50.65093], [3.060919, 50.650955], [3.060708, 50.650974], [3.060652, 50.650978], [3.060312, 50.651003], [3.059912, 50.651029], [3.0595902, 50.6510453], [3.0595385, 50.650909], [3.0596347, 50.6507121], [3.0595746, 50.650383], [3.0593067, 50.6501673], [3.0594361, 50.6499703], [3.0590523, 50.6497988], [3.0578265, 50.649251], [3.0574114, 50.6495059], [3.0570006, 50.6493191], [3.0562892, 50.649674], [3.0560995, 50.6495209], [3.0558368, 50.6496487], [3.055542, 50.6495804], [3.0553942, 50.6495462], [3.0549087, 50.6502589], [3.0547534, 50.6504869], [3.0546283, 50.6506724], [3.0539268, 50.650214], [3.0536974, 50.6503648], [3.0535747, 50.6502652], [3.0524209, 50.6505316], [3.0519577, 50.6497843], [3.0516714, 50.649807], [3.0516686, 50.6496178], [3.0514609, 50.6495962], [3.0505201, 50.6494985], [3.0513453, 50.6486453], [3.0512649, 50.648642], [3.0508887, 50.6486548], [3.0501436, 50.6486775], [3.0498856, 50.6484218], [3.0498864, 50.6484088], [3.0495868, 50.6483768], [3.0494115, 50.6483686], [3.0488402, 50.6483418], [3.0483704, 50.6483192]]]}}, {"type": "Feature", "properties": {"nom": "Wazemmes"}, "geometry": {"type": "Polygon", "coordinates": [[[3.0349506, 50.6208115], [3.03521, 50.6207351], [3.0352762, 50.6207174], [3.0357797, 50.6205873], [3.0358377, 50.6205721], [3.0362821, 50.6204587], [3.0365083, 50.6203983], [3.0369578, 50.6202773], [3.0369631, 50.6202759], [3.0373954, 50.620157], [3.0376895, 50.6200832], [3.037787, 50.62006], [3.037938, 50.6200267], [3.0381767, 50.619978], [3.0382909, 50.6199565], [3.0386651, 50.619887], [3.0392041, 50.6197921], [3.0399578, 50.6196608], [3.040584, 50.6195549], [3.0408288, 50.6195154], [3.0408794, 50.6195087], [3.0409208, 50.6195056], [3.0409595, 50.6195051], [3.0410118, 50.6195125], [3.0411766, 50.6194732], [3.0412041, 50.6194586], [3.0412301, 50.6194486], [3.0412436, 50.619445], [3.0412571, 50.6194415], [3.0413244, 50.6194296], [3.0414448, 50.6194125], [3.0419205, 50.619353], [3.0426497, 50.6192549], [3.0430144, 50.6192069], [3.0431107, 50.6191945], [3.0431539, 50.619189], [3.0431995, 50.6191882], [3.043255, 50.6191937], [3.0434537, 50.6191756], [3.0434905, 50.6191576], [3.0435261, 50.6191477], [3.0436228, 50.6191346], [3.0440086, 50.6190862], [3.0441855, 50.6190639], [3.0459393, 50.6188393], [3.0466899, 50.6187403], [3.0479145, 50.6185792], [3.048447, 50.6185092], [3.0488505, 50.6184582], [3.0492703, 50.6184049], [3.0493349, 50.6183993], [3.049358, 50.6183992], [3.0493861, 50.6184003], [3.0494151, 50.6184054], [3.0494439, 50.618416], [3.0494721, 50.6184289], [3.0495026, 50.6184496], [3.0500056, 50.618355], [3.0505464, 50.6184463], [3.0507443, 50.6185329], [3.0508379, 50.6185789], [3.0510522, 50.6186713], [3.0514976, 50.6188333], [3.0526548, 50.6192259], [3.053547, 50.619525], [3.0578233, 50.6209573], [3.060011, 50.6216987], [3.0612417, 50.6221153], [3.0612433, 50.622157], [3.0612476, 50.6222607], [3.0612481, 50.6222856], [3.0612489, 50.6223305], [3.0612502, 50.6224044], [3.0612519, 50.62261], [3.0612528, 50.6227119], [3.0612531, 50.6227498], [3.0612533, 50.6227777], [3.0612536, 50.62281], [3.0612537, 50.6228288], [3.0612536, 50.6229082], [3.0612646, 50.6241581], [3.0612649, 50.6241814], [3.0612651, 50.6242031], [3.0612676, 50.624324], [3.0612683, 50.6243361], [3.0612695, 50.6243554], [3.0612747, 50.6249717], [3.0612751, 50.6250222], [3.0612757, 50.6250716], [3.0612853, 50.6258907], [3.0612864, 50.6259868], [3.0612858, 50.6260645], [3.0611602, 50.6260625], [3.0610844, 50.6260613], [3.0591643, 50.6260318], [3.0590213, 50.6260291], [3.057531, 50.6260115], [3.0574567, 50.6260105], [3.0566898, 50.6259998], [3.0562578, 50.6259938], [3.057095, 50.6269881], [3.0576472, 50.6276571], [3.0582593, 50.6284309], [3.0590242, 50.6290257], [3.0525038, 50.6324279], [3.0521578, 50.6326194], [3.0521049, 50.6325953], [3.0520269, 50.6325621], [3.0520009, 50.632551], [3.051957, 50.6325323], [3.0517824, 50.632458], [3.0511411, 50.6321851], [3.0511151, 50.632174], [3.0510247, 50.6321355], [3.0509138, 50.6320883], [3.0508881, 50.6320774], [3.0508326, 50.6320538], [3.0500899, 50.6317376], [3.0496574, 50.6315535], [3.0496071, 50.6315321], [3.0495834, 50.631522], [3.0494823, 50.631479], [3.0493874, 50.631439], [3.049366, 50.63143], [3.0493009, 50.6314025], [3.0488408, 50.6312082], [3.0483952, 50.6310213], [3.0477241, 50.630737], [3.0476803, 50.6307184], [3.04765, 50.6307056], [3.0475667, 50.6306705], [3.0474656, 50.6306283], [3.0474397, 50.630617], [3.0473633, 50.6305836], [3.0471092, 50.6304762], [3.0470169, 50.6304366], [3.0467375, 50.630318], [3.0464247, 50.6301853], [3.0461521, 50.6300696], [3.046041, 50.6300224], [3.0456874, 50.6298724], [3.0456412, 50.6298528], [3.0456173, 50.6298426], [3.0455253, 50.6298036], [3.0454245, 50.6297594], [3.0453899, 50.629744], [3.0453383, 50.629721], [3.04442, 50.6293195], [3.0441063, 50.6291821], [3.0440336, 50.6291502], [3.0438597, 50.6290619], [3.0437479, 50.629011], [3.0437032, 50.6289906], [3.0436232, 50.6289527], [3.043509, 50.6290246], [3.0434698, 50.6290487], [3.0434431, 50.6290652], [3.0433244, 50.6291364], [3.0432778, 50.6291309], [3.0418698, 50.6277775], [3.0418488, 50.6276893], [3.0418177, 50.6276594], [3.041063, 50.6269234], [3.0408237, 50.626679], [3.040763, 50.6266182], [3.0407356, 50.6265961], [3.040705, 50.6265738], [3.0406495, 50.626538], [3.0402733, 50.6262022], [3.0412519, 50.6254242], [3.0420979, 50.6247535], [3.0423018, 50.6245888], [3.0424943, 50.6244308], [3.0426004, 50.6243374], [3.0431765, 50.6238618], [3.0431383, 50.6238518], [3.0430489, 50.6237925], [3.0430031, 50.623761], [3.0429138, 50.6237067], [3.0428159, 50.6236505], [3.0427113, 50.6235969], [3.0425882, 50.6235366], [3.042427, 50.6234633], [3.0422942, 50.6234038], [3.0421869, 50.623357], [3.042108, 50.6233251], [3.0417781, 50.6231907], [3.0413288, 50.6230105], [3.041266, 50.6229854], [3.0411608, 50.6229422], [3.0409332, 50.6228497], [3.0407771, 50.6227905], [3.0407367, 50.6227762], [3.040694, 50.6227604], [3.0405739, 50.622717], [3.0402752, 50.6226147], [3.0400259, 50.6225286], [3.0395363, 50.6223594], [3.0390595, 50.6221915], [3.0386692, 50.6220531], [3.0385685, 50.6220212], [3.0384563, 50.6219836], [3.0376943, 50.6217528], [3.0353116, 50.6210312], [3.0352265, 50.6210056], [3.0351473, 50.6209704], [3.0351075, 50.6209476], [3.0350629, 50.6209168], [3.0350139, 50.6208722], [3.0349506, 50.6208115]]]}}, {"type": "Feature", "properties": {"nom": "Lille-Moulins"}, "geometry": {"type": "Polygon", "coordinates": [[[3.0482606, 50.6166722], [3.0482707, 50.6165814], [3.0484744, 50.6165794], [3.0487511, 50.6166028], [3.048926, 50.616618], [3.0491191, 50.6166325], [3.0493283, 50.616647], [3.0495054, 50.6166589], [3.0497765, 50.6166714], [3.0504031, 50.616698], [3.0508064, 50.6167087], [3.0512337, 50.6167156], [3.0516658, 50.6167178], [3.052296, 50.6167194], [3.0529094, 50.6167049], [3.0536211, 50.6166752], [3.0547105, 50.6166044], [3.0569339, 50.6164171], [3.0575413, 50.6163679], [3.0581497, 50.6163112], [3.0585401, 50.6162708], [3.0589516, 50.6162232], [3.0595214, 50.6161428], [3.0597822, 50.616099], [3.0599083, 50.6160777], [3.0600223, 50.616059], [3.0601689, 50.6160325], [3.0603106, 50.6160062], [3.0604461, 50.6159815], [3.0605815, 50.615956], [3.0606856, 50.6159362], [3.0608256, 50.6159075], [3.0609624, 50.6158769], [3.0611099, 50.6158437], [3.0612959, 50.6158016], [3.0614412, 50.6157696], [3.0615928, 50.6157331], [3.0617496, 50.6156965], [3.0619059, 50.6156574], [3.0621078, 50.6156063], [3.0624785, 50.6155153], [3.0626555, 50.6154702], [3.062962, 50.6153884], [3.0645483, 50.6149868], [3.0653787, 50.6147783], [3.0662052, 50.6145688], [3.0681498, 50.6140774], [3.069661, 50.6136943], [3.071309, 50.6132731], [3.0717963, 50.6131505], [3.0722796, 50.6130198], [3.0726782, 50.612911], [3.0730899, 50.612791], [3.0736544, 50.6126203], [3.074218, 50.6124474], [3.0747909, 50.6122655], [3.0753588, 50.6120868], [3.0758559, 50.6119328], [3.0760438, 50.611876], [3.0764884, 50.6117405], [3.0767577, 50.6116607], [3.0774279, 50.612238], [3.0775055, 50.6123056], [3.0775348, 50.6123602], [3.077565, 50.6123898], [3.0781916, 50.6128623], [3.0785255, 50.6131123], [3.0788709, 50.6133618], [3.0787708, 50.6134269], [3.0785921, 50.613545], [3.0790982, 50.6139571], [3.0792712, 50.6140971], [3.0794947, 50.6142757], [3.0797875, 50.614457], [3.0802412, 50.6147432], [3.0803763, 50.6148279], [3.0806479, 50.6149987], [3.0812171, 50.6153306], [3.0818833, 50.6157182], [3.0819156, 50.6156934], [3.0821794, 50.6158209], [3.0823025, 50.6158782], [3.0824097, 50.6159281], [3.0825406, 50.6159885], [3.0827263, 50.6160749], [3.0829833, 50.6161955], [3.0832549, 50.6163227], [3.0831856, 50.616362], [3.0831028, 50.6164082], [3.0829913, 50.6164663], [3.0828528, 50.6165348], [3.08271, 50.616606], [3.0825577, 50.6166851], [3.0824319, 50.6167534], [3.0822637, 50.6168495], [3.0821526, 50.61692], [3.0820311, 50.6170037], [3.0819144, 50.6170909], [3.0817437, 50.6172336], [3.0816466, 50.6173214], [3.0815544, 50.6174128], [3.0814747, 50.6174977], [3.081375, 50.6176151], [3.0812919, 50.6177187], [3.0812441, 50.6177827], [3.0811619, 50.6179137], [3.0810958, 50.618028], [3.0810443, 50.6181331], [3.0809957, 50.6182474], [3.0809533, 50.6183683], [3.080918, 50.6184981], [3.080889, 50.6186271], [3.0808657, 50.6187719], [3.0808595, 50.6188694], [3.0808596, 50.6189749], [3.0808643, 50.6190572], [3.0808711, 50.6191474], [3.0808828, 50.6192451], [3.0809088, 50.6193792], [3.0809389, 50.6194921], [3.0809776, 50.619613], [3.0810275, 50.6197421], [3.0810702, 50.6198361], [3.0811315, 50.6199555], [3.0811805, 50.6200354], [3.081223, 50.6200991], [3.0813153, 50.6202252], [3.0814019, 50.6203312], [3.0814792, 50.6204226], [3.0815596, 50.620508], [3.0817389, 50.6206844], [3.0820157, 50.6209463], [3.0823015, 50.6211953], [3.0826781, 50.6215048], [3.0835653, 50.6223319], [3.0839006, 50.6226594], [3.0840752, 50.622846], [3.084222, 50.623021], [3.0844318, 50.6233081], [3.0845196, 50.6234713], [3.0845713, 50.6235827], [3.0846106, 50.6236723], [3.0846423, 50.6237642], [3.0846631, 50.6238431], [3.0846821, 50.6239327], [3.0846982, 50.6240522], [3.0847063, 50.6241673], [3.0847106, 50.6242968], [3.0847037, 50.6243947], [3.0846968, 50.624483], [3.084685, 50.6245994], [3.0846581, 50.6247142], [3.0846255, 50.6248254], [3.084505, 50.6251382], [3.0837052, 50.6266156], [3.0834733, 50.6270438], [3.0822131, 50.6267553], [3.0811083, 50.6265455], [3.0807845, 50.6264655], [3.0796251, 50.6262195], [3.0801542, 50.6251222], [3.0803735, 50.6245951], [3.0804255, 50.624193], [3.0804154, 50.6239859], [3.0802948, 50.6239851], [3.0802528, 50.6239839], [3.0800963, 50.6239793], [3.0799337, 50.6239727], [3.0794418, 50.6239384], [3.0787649, 50.6239409], [3.0778457, 50.6239417], [3.0777264, 50.6239401], [3.0774662, 50.6239461], [3.0773084, 50.6239497], [3.0771453, 50.6239546], [3.0770715, 50.6239576], [3.0768844, 50.6239678], [3.0750188, 50.6240689], [3.0739159, 50.6241305], [3.073017, 50.624181], [3.0726313, 50.6242008], [3.0723253, 50.6242176], [3.0715439, 50.6242621], [3.0714129, 50.6242697], [3.0713634, 50.6242723], [3.071319, 50.6242746], [3.0711842, 50.6242832], [3.0709971, 50.624296], [3.0709411, 50.6242993], [3.0708832, 50.6243026], [3.0707472, 50.6243101], [3.070722, 50.6243115], [3.0702489, 50.6243377], [3.0699205, 50.6243561], [3.0698489, 50.6243602], [3.0698237, 50.6243616], [3.0697212, 50.6243681], [3.0685932, 50.6244639], [3.0683737, 50.6244783], [3.0682741, 50.6244672], [3.0679962, 50.6243812], [3.0677513, 50.6242989], [3.0667674, 50.6239765], [3.0665689, 50.623913], [3.0658802, 50.6236786], [3.0652126, 50.6234599], [3.064354, 50.6231654], [3.0641899, 50.6231149], [3.0631202, 50.6227496], [3.062704, 50.6226087], [3.0612417, 50.6221153], [3.060011, 50.6216987], [3.0578233, 50.6209573], [3.053547, 50.619525], [3.0526548, 50.6192259], [3.0514976, 50.6188333], [3.0510522, 50.6186713], [3.0508379, 50.6185789], [3.0507443, 50.6185329], [3.0505464, 50.6184463], [3.0500056, 50.618355], [3.0498586, 50.6180429], [3.0497294, 50.6179579], [3.0496747, 50.617915], [3.0496144, 50.6178872], [3.0495865, 50.6178766], [3.049089, 50.6175901], [3.0486788, 50.6173856], [3.0485365, 50.6172692], [3.0483875, 50.6171387], [3.0483241, 50.6170498], [3.048281, 50.616958], [3.0482608, 50.61688], [3.0482606, 50.6166722]]]}}, {"type": "Feature", "properties": {"nom": "Vauban-Esquermes"}, "geometry": {"type": "Polygon", "coordinates": [[[3.0288176, 50.6225857], [3.0290996, 50.622603], [3.0293664, 50.6226239], [3.0294389, 50.6226294], [3.0295068, 50.6226312], [3.0295637, 50.6226278], [3.0296101, 50.6226244], [3.029668, 50.6226143], [3.029708, 50.6226049], [3.0297402, 50.6225921], [3.0297896, 50.6225705], [3.0298273, 50.6225479], [3.0298741, 50.6225152], [3.0301339, 50.6223247], [3.0302176, 50.6222696], [3.030291, 50.6222241], [3.0304147, 50.6221539], [3.0304952, 50.6221114], [3.0305649, 50.6220765], [3.0306266, 50.6220484], [3.0307067, 50.6220146], [3.0308063, 50.621977], [3.0309345, 50.6219365], [3.0311674, 50.6218645], [3.0315095, 50.6217582], [3.0324472, 50.6214708], [3.0333441, 50.6211938], [3.0334028, 50.6211758], [3.0334353, 50.621164], [3.0335306, 50.6211321], [3.0336059, 50.6211038], [3.0336786, 50.6210744], [3.0337764, 50.6210253], [3.0338906, 50.620966], [3.0339715, 50.6209145], [3.0342271, 50.6207367], [3.0342683, 50.6207059], [3.0343523, 50.6206625], [3.0344152, 50.6206416], [3.0349506, 50.6208115], [3.0350139, 50.6208722], [3.0350629, 50.6209168], [3.0351075, 50.6209476], [3.0351473, 50.6209704], [3.0352265, 50.6210056], [3.0353116, 50.6210312], [3.0376943, 50.6217528], [3.0384563, 50.6219836], [3.0385685, 50.6220212], [3.0386692, 50.6220531], [3.0390595, 50.6221915], [3.0395363, 50.6223594], [3.0400259, 50.6225286], [3.0402752, 50.6226147], [3.0405739, 50.622717], [3.040694, 50.6227604], [3.0407367, 50.6227762], [3.0407771, 50.6227905], [3.0409332, 50.6228497], [3.0411608, 50.6229422], [3.041266, 50.6229854], [3.0413288, 50.6230105], [3.0417781, 50.6231907], [3.042108, 50.6233251], [3.0421869, 50.623357], [3.0422942, 50.6234038], [3.042427, 50.6234633], [3.0425882, 50.6235366], [3.0427113, 50.6235969], [3.0428159, 50.6236505], [3.0429138, 50.6237067], [3.0430031, 50.623761], [3.0430489, 50.6237925], [3.0431383, 50.6238518], [3.0431765, 50.6238618], [3.0426004, 50.6243374], [3.0424943, 50.6244308], [3.0423018, 50.6245888], [3.0420979, 50.6247535], [3.0412519, 50.6254242], [3.0402733, 50.6262022], [3.0406495, 50.626538], [3.040705, 50.6265738], [3.0407356, 50.6265961], [3.040763, 50.6266182], [3.0408237, 50.626679], [3.041063, 50.6269234], [3.0418177, 50.6276594], [3.0418488, 50.6276893], [3.0418698, 50.6277775], [3.0432778, 50.6291309], [3.0433244, 50.6291364], [3.0434431, 50.6290652], [3.0434698, 50.6290487], [3.043509, 50.6290246], [3.0436232, 50.6289527], [3.0437032, 50.6289906], [3.0437479, 50.629011], [3.0438597, 50.6290619], [3.0440336, 50.6291502], [3.0441063, 50.6291821], [3.04442, 50.6293195], [3.0453383, 50.629721], [3.0453899, 50.629744], [3.0454245, 50.6297594], [3.0455253, 50.6298036], [3.0456173, 50.6298426], [3.0456412, 50.6298528], [3.0456874, 50.6298724], [3.046041, 50.6300224], [3.0461521, 50.6300696], [3.0464247, 50.6301853], [3.0467375, 50.630318], [3.0470169, 50.6304366], [3.0471092, 50.6304762], [3.0473633, 50.6305836], [3.0474397, 50.630617], [3.0474656, 50.6306283], [3.0475667, 50.6306705], [3.04765, 50.6307056], [3.0476803, 50.6307184], [3.0477241, 50.630737], [3.0483952, 50.6310213], [3.0488408, 50.6312082], [3.0493009, 50.6314025], [3.049366, 50.63143], [3.0493874, 50.631439], [3.0494823, 50.631479], [3.0495834, 50.631522], [3.0496071, 50.6315321], [3.0496574, 50.6315535], [3.0500899, 50.6317376], [3.0508326, 50.6320538], [3.0508881, 50.6320774], [3.0509138, 50.6320883], [3.0510247, 50.6321355], [3.0511151, 50.632174], [3.0511411, 50.6321851], [3.0517824, 50.632458], [3.051957, 50.6325323], [3.0520009, 50.632551], [3.0520269, 50.6325621], [3.0521049, 50.6325953], [3.0521578, 50.6326194], [3.0520528, 50.6326759], [3.0517343, 50.6328469], [3.051399, 50.6330247], [3.0504351, 50.6335366], [3.0487014, 50.6344587], [3.0504121, 50.6361227], [3.0519415, 50.6376102], [3.0527487, 50.6383889], [3.0527961, 50.6384346], [3.0529156, 50.63855], [3.0533187, 50.638972], [3.0534386, 50.6391223], [3.053535, 50.639317], [3.0536158, 50.6396272], [3.0536182, 50.639885], [3.0534735, 50.6414245], [3.0534214, 50.6420671], [3.053365, 50.642645], [3.0532913, 50.6428904], [3.0531203, 50.6431867], [3.0528487, 50.6434498], [3.050669, 50.6452349], [3.0496746, 50.6461174], [3.049475, 50.6463594], [3.0491874, 50.6467819], [3.048478, 50.6478715], [3.0477649, 50.6477898], [3.0475395, 50.6478328], [3.0470924, 50.6479182], [3.0464568, 50.6479867], [3.0457704, 50.6480756], [3.0396318, 50.64499], [3.03937, 50.6448361], [3.0390809, 50.6446626], [3.0389609, 50.6445818], [3.0388308, 50.6444929], [3.0385772, 50.6443164], [3.0382441, 50.6440303], [3.038063, 50.6438679], [3.0378109, 50.6435738], [3.0375306, 50.6432406], [3.0372083, 50.6427455], [3.0369821, 50.6422915], [3.0368725, 50.6420097], [3.0368265, 50.6418289], [3.0367555, 50.6415533], [3.0367388, 50.6414379], [3.0367112, 50.6411587], [3.0367069, 50.6409098], [3.0367488, 50.6402725], [3.0367836, 50.6397273], [3.036832, 50.639357], [3.0369309, 50.6389016], [3.038768, 50.6358461], [3.038949, 50.63574], [3.0390391, 50.635696], [3.039124, 50.6356607], [3.0392443, 50.6356171], [3.0392942, 50.6355393], [3.0393224, 50.6355109], [3.0393668, 50.6354764], [3.0394307, 50.6354402], [3.0395107, 50.6353972], [3.039617, 50.6353323], [3.0397167, 50.6352764], [3.0398496, 50.6351802], [3.0400934, 50.6350036], [3.0401223, 50.6349824], [3.0400458, 50.6349214], [3.0397579, 50.6347116], [3.0393285, 50.6343151], [3.038888, 50.6339226], [3.0380444, 50.6331472], [3.0375803, 50.632727], [3.037359, 50.6325169], [3.037128, 50.6322776], [3.0370624, 50.6322106], [3.0370063, 50.6321596], [3.0366181, 50.6318207], [3.0363572, 50.6315769], [3.0360432, 50.6312833], [3.0357632, 50.6309852], [3.0356064, 50.630842], [3.0354897, 50.6307355], [3.0354347, 50.630688], [3.0353768, 50.6306381], [3.0353457, 50.6306085], [3.035237, 50.6305048], [3.035216, 50.6304841], [3.0351918, 50.6304627], [3.0351028, 50.6303982], [3.0350097, 50.6303224], [3.0348982, 50.6302484], [3.0348795, 50.6302364], [3.0348476, 50.6302157], [3.0342518, 50.6298372], [3.0339366, 50.6296513], [3.0332016, 50.6289856], [3.032259, 50.6281604], [3.0311754, 50.6270152], [3.0304626, 50.626259], [3.0296539, 50.6253895], [3.0293743, 50.6250828], [3.0292215, 50.624865], [3.0291595, 50.6247608], [3.0291263, 50.6246914], [3.0290924, 50.6246179], [3.0290672, 50.624545], [3.0290498, 50.6244906], [3.0290388, 50.6244418], [3.0290297, 50.6243877], [3.0290266, 50.6243], [3.0290256, 50.624226], [3.0290303, 50.6241201], [3.0290467, 50.6239724], [3.029066, 50.6238443], [3.0290672, 50.6238364], [3.0290747, 50.6237987], [3.029141, 50.6234648], [3.0288176, 50.6225857]]]}}, {"type": "Feature", "properties": {"nom": "Lille-Sud"}, "geometry": {"type": "Polygon", "coordinates": [[[3.0236148, 50.612526], [3.023638, 50.6124207], [3.0236538, 50.6123454], [3.023682, 50.6122104], [3.0237375, 50.6118961], [3.0237796, 50.6116573], [3.0237878, 50.6116128], [3.0238053, 50.6115183], [3.0239687, 50.611496], [3.0241531, 50.6114585], [3.0245984, 50.6113555], [3.0248894, 50.6112815], [3.0252703, 50.611176], [3.0253467, 50.6111581], [3.0255304, 50.6110977], [3.0255961, 50.6110738], [3.0257168, 50.6110211], [3.0262117, 50.6107921], [3.0263532, 50.610719], [3.0263907, 50.6106968], [3.0268005, 50.610439], [3.0273208, 50.6101139], [3.0278693, 50.6097696], [3.0283206, 50.6094956], [3.0284272, 50.6094262], [3.0285446, 50.6093305], [3.0286042, 50.6092841], [3.0287625, 50.6091488], [3.0289154, 50.6090092], [3.0290843, 50.6088959], [3.0292061, 50.6088122], [3.0292936, 50.6087709], [3.0294139, 50.6087143], [3.0294498, 50.6086786], [3.029627, 50.6085822], [3.0297518, 50.608541], [3.0299074, 50.6084942], [3.0301577, 50.6084207], [3.0305653, 50.6082453], [3.0329564, 50.6068801], [3.0331436, 50.6067389], [3.0331948, 50.6067003], [3.0346529, 50.6056006], [3.0353547, 50.6053383], [3.0361334, 50.6050551], [3.0363565, 50.604977], [3.0367807, 50.6048321], [3.0372153, 50.6047429], [3.0374777, 50.6047178], [3.0383596, 50.6046037], [3.0386203, 50.6045876], [3.0391051, 50.6045732], [3.0393343, 50.6045557], [3.0394229, 50.6043625], [3.0403733, 50.6044241], [3.0406205, 50.6044411], [3.0411969, 50.6044819], [3.0415465, 50.6045666], [3.0418138, 50.6049659], [3.0420443, 50.6053258], [3.0420861, 50.6053911], [3.0421269, 50.6054547], [3.0425664, 50.6061398], [3.0426273, 50.6062423], [3.0428166, 50.6065249], [3.0429479, 50.6067219], [3.0429781, 50.6067666], [3.0430574, 50.6068863], [3.043431, 50.6065732], [3.0436963, 50.6063366], [3.0439054, 50.6061454], [3.0441256, 50.6059441], [3.0445028, 50.6056049], [3.0451402, 50.6050279], [3.0452834, 50.6048992], [3.0456031, 50.6046055], [3.0456295, 50.6045821], [3.045719, 50.6045024], [3.0470083, 50.6033401], [3.0478862, 50.6025382], [3.0483523, 50.6021162], [3.0483758, 50.6020816], [3.0490228, 50.6010535], [3.0491537, 50.6008363], [3.0517305, 50.6010251], [3.0517069, 50.6011781], [3.0516928, 50.6012517], [3.0516894, 50.6012692], [3.0536503, 50.6011096], [3.054274, 50.6010588], [3.0544215, 50.6010468], [3.0546918, 50.6013732], [3.0550805, 50.6019161], [3.0554619, 50.6024053], [3.0556913, 50.6026933], [3.055739, 50.6027558], [3.0558389, 50.602877], [3.0560625, 50.6031495], [3.0561034, 50.6031994], [3.0561389, 50.6032426], [3.0562, 50.6033159], [3.0562881, 50.6034234], [3.056406, 50.603568], [3.0564768, 50.6036521], [3.0567628, 50.6040062], [3.0568032, 50.6040549], [3.0568529, 50.6041151], [3.056917, 50.6041915], [3.0569658, 50.6042515], [3.0572155, 50.6045614], [3.0574062, 50.604793], [3.0574655, 50.6048636], [3.0575167, 50.6049261], [3.0575861, 50.6050102], [3.0576538, 50.6050925], [3.057693, 50.6051438], [3.057978, 50.6054906], [3.0581335, 50.6056825], [3.0583443, 50.6059414], [3.0584291, 50.6060499], [3.058484, 50.6061214], [3.0585285, 50.6061833], [3.0585793, 50.6062593], [3.0586276, 50.6063316], [3.0586949, 50.6064388], [3.0587274, 50.6064931], [3.0587648, 50.6065586], [3.0588963, 50.6067987], [3.0589255, 50.606852], [3.0590054, 50.6069996], [3.0590488, 50.6070806], [3.05915, 50.60726], [3.0591621, 50.6072836], [3.0591841, 50.6073217], [3.0592173, 50.6073832], [3.0592472, 50.6074402], [3.0592803, 50.6074991], [3.059398, 50.6077122], [3.059505, 50.6079078], [3.0596538, 50.6081816], [3.0597352, 50.6083315], [3.0600009, 50.6088361], [3.0600187, 50.6088726], [3.0601263, 50.6090749], [3.0601509, 50.6091224], [3.0603515, 50.6095002], [3.060505, 50.6097891], [3.0606593, 50.6100796], [3.0607286, 50.6102096], [3.0608786, 50.6104984], [3.060975, 50.6106688], [3.0610534, 50.6108191], [3.0611863, 50.6110864], [3.061225, 50.6111641], [3.0613178, 50.6113443], [3.0614554, 50.6116012], [3.0615924, 50.6118551], [3.0619752, 50.6125874], [3.0620302, 50.6125498], [3.0620971, 50.6125044], [3.0629353, 50.6119361], [3.0630081, 50.6118868], [3.0631775, 50.6117742], [3.0637253, 50.6113932], [3.0645036, 50.6108506], [3.0646004, 50.6107942], [3.0649076, 50.6107243], [3.0649598, 50.6107099], [3.0650031, 50.6106931], [3.0650531, 50.6106704], [3.0650742, 50.6106605], [3.0650968, 50.61065], [3.065382, 50.6105169], [3.0654502, 50.6104851], [3.0656032, 50.610412], [3.0658071, 50.6103159], [3.0661489, 50.6101561], [3.0662321, 50.6101168], [3.0663271, 50.6100785], [3.0670031, 50.6098066], [3.0670779, 50.6097739], [3.0671578, 50.6097368], [3.0672363, 50.6096966], [3.0677324, 50.6094372], [3.0678318, 50.6093857], [3.0679224, 50.6093371], [3.0679615, 50.6093126], [3.0680065, 50.6092817], [3.0680941, 50.609214], [3.068207, 50.609121], [3.0685639, 50.6088241], [3.0686352, 50.6087637], [3.0688818, 50.6085579], [3.0691389, 50.6083566], [3.0691999, 50.6083084], [3.0692952, 50.6082324], [3.0697445, 50.6078779], [3.069928, 50.6077358], [3.0700938, 50.6076099], [3.0701525, 50.6075682], [3.070252, 50.6075006], [3.0710497, 50.6069615], [3.0710803, 50.6069408], [3.0710968, 50.6069296], [3.0711336, 50.6069061], [3.0712739, 50.6068254], [3.0713771, 50.606903], [3.0714217, 50.6069395], [3.0717974, 50.6072473], [3.0718496, 50.6072908], [3.0720491, 50.6074535], [3.0726676, 50.6079496], [3.072699, 50.6079749], [3.0728139, 50.608073], [3.0729025, 50.608151], [3.0729808, 50.6082265], [3.0730455, 50.6083021], [3.0731803, 50.6084637], [3.0733788, 50.6087017], [3.0734936, 50.6088405], [3.0735143, 50.608863], [3.0735346, 50.608885], [3.073601, 50.6089502], [3.0737097, 50.6090388], [3.0738036, 50.6091122], [3.0738849, 50.6091723], [3.0741195, 50.609338], [3.0741655, 50.6093705], [3.0742657, 50.6094391], [3.0748361, 50.6097998], [3.0748909, 50.609834], [3.0749581, 50.6098709], [3.0751007, 50.609877], [3.0751956, 50.6098811], [3.0752386, 50.6098829], [3.0753531, 50.6098843], [3.07539, 50.6099152], [3.0753458, 50.6099462], [3.0752859, 50.6103926], [3.0754092, 50.6105049], [3.0756377, 50.6107001], [3.0757318, 50.6107808], [3.075831, 50.610861], [3.0766673, 50.6115829], [3.0767577, 50.6116607], [3.0764884, 50.6117405], [3.0760438, 50.611876], [3.0758559, 50.6119328], [3.0753588, 50.6120868], [3.0747909, 50.6122655], [3.074218, 50.6124474], [3.0736544, 50.6126203], [3.0730899, 50.612791], [3.0726782, 50.612911], [3.0722796, 50.6130198], [3.0717963, 50.6131505], [3.071309, 50.6132731], [3.069661, 50.6136943], [3.0681498, 50.6140774], [3.0662052, 50.6145688], [3.0653787, 50.6147783], [3.0645483, 50.6149868], [3.062962, 50.6153884], [3.0626555, 50.6154702], [3.0624785, 50.6155153], [3.0621078, 50.6156063], [3.0619059, 50.6156574], [3.0617496, 50.6156965], [3.0615928, 50.6157331], [3.0614412, 50.6157696], [3.0612959, 50.6158016], [3.0611099, 50.6158437], [3.0609624, 50.6158769], [3.0608256, 50.6159075], [3.0606856, 50.6159362], [3.0605815, 50.615956], [3.0604461, 50.6159815], [3.0603106, 50.6160062], [3.0601689, 50.6160325], [3.0600223, 50.616059], [3.0599083, 50.6160777], [3.0597822, 50.616099], [3.0595214, 50.6161428], [3.0589516, 50.6162232], [3.0585401, 50.6162708], [3.0581497, 50.6163112], [3.0575413, 50.6163679], [3.0569339, 50.6164171], [3.0547105, 50.6166044], [3.0536211, 50.6166752], [3.0529094, 50.6167049], [3.052296, 50.6167194], [3.0516658, 50.6167178], [3.0512337, 50.6167156], [3.0508064, 50.6167087], [3.0504031, 50.616698], [3.0497765, 50.6166714], [3.0495054, 50.6166589], [3.0493283, 50.616647], [3.0491191, 50.6166325], [3.048926, 50.616618], [3.0487511, 50.6166028], [3.0484744, 50.6165794], [3.0482707, 50.6165814], [3.0482695, 50.6165584], [3.0477167, 50.6165017], [3.0472078, 50.6164414], [3.0467039, 50.6163708], [3.045707, 50.6162114], [3.0450883, 50.6160921], [3.0444871, 50.6159693], [3.043283, 50.615697], [3.0426563, 50.6155578], [3.0420275, 50.6154323], [3.0413573, 50.6153194], [3.0406376, 50.615219], [3.037664, 50.6149167], [3.0360783, 50.6147523], [3.0343463, 50.614578], [3.0324028, 50.6143785], [3.0300236, 50.6141374], [3.0279135, 50.6139219], [3.0280445, 50.6138212], [3.025363, 50.6135709], [3.0252826, 50.6135496], [3.0248052, 50.6133862], [3.0244862, 50.6133795], [3.0244158, 50.6133135], [3.0243506, 50.6132529], [3.024237, 50.6131459], [3.0240455, 50.6129662], [3.0236638, 50.6126077], [3.0236376, 50.6125694], [3.0236148, 50.612526]]]}}, {"type": "Feature", "properties": {"nom": "Faubourg de Béthune"}, "geometry": {"type": "Polygon", "coordinates": [[[3.0212066, 50.6218338], [3.0212642, 50.6216576], [3.0213544, 50.6213033], [3.0215466, 50.6209894], [3.0220478, 50.6204301], [3.022098, 50.6203938], [3.0222856, 50.6202875], [3.0226433, 50.6201418], [3.0226936, 50.6201202], [3.0227263, 50.620094], [3.022751, 50.6200704], [3.0229833, 50.6197134], [3.0230193, 50.6196497], [3.0230432, 50.6196052], [3.0230625, 50.6195605], [3.0231997, 50.6191591], [3.0233097, 50.6188425], [3.0233449, 50.6187349], [3.0234031, 50.618557], [3.0234367, 50.618462], [3.0234641, 50.6183844], [3.0235623, 50.6181093], [3.0236522, 50.6178691], [3.0237138, 50.6177043], [3.0237745, 50.6175339], [3.0239386, 50.6170791], [3.0239603, 50.6170364], [3.0239589, 50.6170269], [3.0240049, 50.6169598], [3.0240541, 50.6169125], [3.0249595, 50.6161723], [3.0250247, 50.6161183], [3.0250728, 50.6160795], [3.0251065, 50.6160537], [3.0258129, 50.6154883], [3.0263616, 50.6150502], [3.0264349, 50.6150098], [3.0264933, 50.6149727], [3.027185, 50.6144967], [3.0275406, 50.6142345], [3.0278597, 50.6139632], [3.0279135, 50.6139219], [3.0300236, 50.6141374], [3.0324028, 50.6143785], [3.0343463, 50.614578], [3.0360783, 50.6147523], [3.037664, 50.6149167], [3.0406376, 50.615219], [3.0413573, 50.6153194], [3.0420275, 50.6154323], [3.0426563, 50.6155578], [3.043283, 50.615697], [3.0444871, 50.6159693], [3.0450883, 50.6160921], [3.045707, 50.6162114], [3.0467039, 50.6163708], [3.0472078, 50.6164414], [3.0477167, 50.6165017], [3.0482695, 50.6165584], [3.0482707, 50.6165814], [3.0482606, 50.6166722], [3.0482608, 50.61688], [3.048281, 50.616958], [3.0483241, 50.6170498], [3.0483875, 50.6171387], [3.0485365, 50.6172692], [3.0486788, 50.6173856], [3.049089, 50.6175901], [3.0495865, 50.6178766], [3.0496144, 50.6178872], [3.0496747, 50.617915], [3.0497294, 50.6179579], [3.0498586, 50.6180429], [3.0500056, 50.618355], [3.0495026, 50.6184496], [3.0494721, 50.6184289], [3.0494439, 50.618416], [3.0494151, 50.6184054], [3.0493861, 50.6184003], [3.049358, 50.6183992], [3.0493349, 50.6183993], [3.0492703, 50.6184049], [3.0488505, 50.6184582], [3.048447, 50.6185092], [3.0479145, 50.6185792], [3.0466899, 50.6187403], [3.0459393, 50.6188393], [3.0441855, 50.6190639], [3.0440086, 50.6190862], [3.0436228, 50.6191346], [3.0435261, 50.6191477], [3.0434905, 50.6191576], [3.0434537, 50.6191756], [3.043255, 50.6191937], [3.0431995, 50.6191882], [3.0431539, 50.619189], [3.0431107, 50.6191945], [3.0430144, 50.6192069], [3.0426497, 50.6192549], [3.0419205, 50.619353], [3.0414448, 50.6194125], [3.0413244, 50.6194296], [3.0412571, 50.6194415], [3.0412436, 50.619445], [3.0412301, 50.6194486], [3.0412041, 50.6194586], [3.0411766, 50.6194732], [3.0410118, 50.6195125], [3.0409595, 50.6195051], [3.0409208, 50.6195056], [3.0408794, 50.6195087], [3.0408288, 50.6195154], [3.040584, 50.6195549], [3.0399578, 50.6196608], [3.0392041, 50.6197921], [3.0386651, 50.619887], [3.0382909, 50.6199565], [3.0381767, 50.619978], [3.037938, 50.6200267], [3.037787, 50.62006], [3.0376895, 50.6200832], [3.0373954, 50.620157], [3.0369631, 50.6202759], [3.0369578, 50.6202773], [3.0365083, 50.6203983], [3.0362821, 50.6204587], [3.0358377, 50.6205721], [3.0357797, 50.6205873], [3.0352762, 50.6207174], [3.03521, 50.6207351], [3.0349506, 50.6208115], [3.0344152, 50.6206416], [3.0343523, 50.6206625], [3.0342683, 50.6207059], [3.0342271, 50.6207367], [3.0339715, 50.6209145], [3.0338906, 50.620966], [3.0337764, 50.6210253], [3.0336786, 50.6210744], [3.0336059, 50.6211038], [3.0335306, 50.6211321], [3.0334353, 50.621164], [3.0334028, 50.6211758], [3.0333441, 50.6211938], [3.0324472, 50.6214708], [3.0315095, 50.6217582], [3.0311674, 50.6218645], [3.0309345, 50.6219365], [3.0308063, 50.621977], [3.0307067, 50.6220146], [3.0306266, 50.6220484], [3.0305649, 50.6220765], [3.0304952, 50.6221114], [3.0304147, 50.6221539], [3.030291, 50.6222241], [3.0302176, 50.6222696], [3.0301339, 50.6223247], [3.0298741, 50.6225152], [3.0298273, 50.6225479], [3.0297896, 50.6225705], [3.0297402, 50.6225921], [3.029708, 50.6226049], [3.029668, 50.6226143], [3.0296101, 50.6226244], [3.0295637, 50.6226278], [3.0295068, 50.6226312], [3.0294389, 50.6226294], [3.0293664, 50.6226239], [3.0290996, 50.622603], [3.0288176, 50.6225857], [3.0276124, 50.621883], [3.0270987, 50.6219202], [3.0255382, 50.6221672], [3.0241619, 50.6222908], [3.0227078, 50.6220876], [3.0212066, 50.6218338]]]}}, {"type": "Feature", "properties": {"nom": "Bois Blancs"}, "geometry": {"type": "Polygon", "coordinates": [[[3.0168437, 50.6354757], [3.0186707, 50.6337086], [3.018786, 50.6335965], [3.019039, 50.6333503], [3.0191189, 50.6332727], [3.0194511, 50.6329498], [3.0197242, 50.6326835], [3.0200005, 50.6324172], [3.0202371, 50.6321882], [3.0203631, 50.6320665], [3.0209722, 50.631492], [3.0211896, 50.6312897], [3.0214233, 50.6310699], [3.0216558, 50.6308543], [3.0216709, 50.6308335], [3.0212826, 50.6306269], [3.020832, 50.6301523], [3.0207921, 50.6300302], [3.0207949, 50.6299395], [3.0207864, 50.6297039], [3.0209035, 50.6292343], [3.0209362, 50.6288522], [3.0207004, 50.6280502], [3.0200504, 50.627616], [3.0198602, 50.6273098], [3.0197543, 50.6268297], [3.0194695, 50.6265513], [3.019344, 50.6264327], [3.019332, 50.6264119], [3.0191619, 50.6261161], [3.0190563, 50.6256597], [3.0186089, 50.6254162], [3.018782, 50.6252892], [3.018944, 50.6251655], [3.0189966, 50.6251275], [3.0192326, 50.6250195], [3.0196522, 50.6248281], [3.0197489, 50.624754], [3.0198857, 50.6246549], [3.0200936, 50.6242903], [3.0202352, 50.6239894], [3.0205227, 50.6236259], [3.0206647, 50.6234092], [3.0208473, 50.6228959], [3.0210449, 50.6223327], [3.0211383, 50.6220705], [3.0212066, 50.6218338], [3.0227078, 50.6220876], [3.0241619, 50.6222908], [3.0255382, 50.6221672], [3.0270987, 50.6219202], [3.0276124, 50.621883], [3.0288176, 50.6225857], [3.029141, 50.6234648], [3.0290747, 50.6237987], [3.0290672, 50.6238364], [3.029066, 50.6238443], [3.0290467, 50.6239724], [3.0290303, 50.6241201], [3.0290256, 50.624226], [3.0290266, 50.6243], [3.0290297, 50.6243877], [3.0290388, 50.6244418], [3.0290498, 50.6244906], [3.0290672, 50.624545], [3.0290924, 50.6246179], [3.0291263, 50.6246914], [3.0291595, 50.6247608], [3.0292215, 50.624865], [3.0293743, 50.6250828], [3.0296539, 50.6253895], [3.0304626, 50.626259], [3.0311754, 50.6270152], [3.032259, 50.6281604], [3.0332016, 50.6289856], [3.0339366, 50.6296513], [3.0342518, 50.6298372], [3.0348476, 50.6302157], [3.0348795, 50.6302364], [3.0348982, 50.6302484], [3.0350097, 50.6303224], [3.0351028, 50.6303982], [3.0351918, 50.6304627], [3.035216, 50.6304841], [3.035237, 50.6305048], [3.0353457, 50.6306085], [3.0353768, 50.6306381], [3.0354347, 50.630688], [3.0354897, 50.6307355], [3.0356064, 50.630842], [3.0357632, 50.6309852], [3.0360432, 50.6312833], [3.0363572, 50.6315769], [3.0366181, 50.6318207], [3.0370063, 50.6321596], [3.0370624, 50.6322106], [3.037128, 50.6322776], [3.037359, 50.6325169], [3.0375803, 50.632727], [3.0380444, 50.6331472], [3.038888, 50.6339226], [3.0393285, 50.6343151], [3.0397579, 50.6347116], [3.0400458, 50.6349214], [3.0401223, 50.6349824], [3.0400934, 50.6350036], [3.0398496, 50.6351802], [3.0397167, 50.6352764], [3.039617, 50.6353323], [3.0395107, 50.6353972], [3.0394307, 50.6354402], [3.0393668, 50.6354764], [3.0393224, 50.6355109], [3.0392942, 50.6355393], [3.0392443, 50.6356171], [3.039124, 50.6356607], [3.0390391, 50.635696], [3.038949, 50.63574], [3.038768, 50.6358461], [3.0369309, 50.6389016], [3.0364081, 50.6387934], [3.03592, 50.6386862], [3.0350422, 50.638525], [3.0344997, 50.638426], [3.0341927, 50.6383585], [3.0339617, 50.638296], [3.0339506, 50.6382924], [3.0338573, 50.6382746], [3.0336491, 50.6382103], [3.03339, 50.6381118], [3.0329642, 50.6377506], [3.0326938, 50.6374828], [3.0326348, 50.6374354], [3.0322299, 50.6371131], [3.0322158, 50.6371008], [3.0321089, 50.6370336], [3.0318484, 50.6368694], [3.0316935, 50.6367903], [3.0313133, 50.6365994], [3.0308984, 50.6364024], [3.0298213, 50.6358938], [3.0295715, 50.6357754], [3.0293621, 50.6356792], [3.0293508, 50.6356722], [3.0293112, 50.6356564], [3.029307, 50.6356545], [3.0292602, 50.6356314], [3.0292548, 50.6356316], [3.0289114, 50.635475], [3.0289056, 50.6354748], [3.0288253, 50.6354376], [3.0284703, 50.6355725], [3.0272073, 50.6360327], [3.025768, 50.6365221], [3.0237942, 50.6377402], [3.0237004, 50.6377808], [3.0236238, 50.6377379], [3.0230171, 50.6373794], [3.0229486, 50.6373389], [3.0228484, 50.6373351], [3.0227889, 50.6373277], [3.0227562, 50.6373129], [3.0226887, 50.6372755], [3.0226568, 50.6372343], [3.0226035, 50.6371855], [3.0225332, 50.6371463], [3.0219519, 50.636884], [3.0218645, 50.6368462], [3.0218384, 50.6368347], [3.0211492, 50.6365456], [3.0209229, 50.6364654], [3.0208296, 50.6364325], [3.0199041, 50.6361711], [3.0196811, 50.6361029], [3.0195908, 50.6360804], [3.0191849, 50.636009], [3.0190931, 50.6359928], [3.0189911, 50.6359738], [3.0185291, 50.6358926], [3.0182978, 50.6358429], [3.0182272, 50.6358239], [3.0180796, 50.6357857], [3.0179502, 50.635755], [3.0178745, 50.6357346], [3.0177087, 50.6356899], [3.0172793, 50.6355746], [3.0170237, 50.6355059], [3.0169714, 50.6354971], [3.0168437, 50.6354757]]]}}, {"type": "Feature", "properties": {"nom": "Fives"}, "geometry": {"type": "Polygon", "coordinates": [[[3.0785018, 50.6378298], [3.0795322, 50.6367604], [3.0800592, 50.6361993], [3.0808657, 50.6353579], [3.081256, 50.6349514], [3.081728, 50.63446], [3.0821666, 50.6340242], [3.0822624, 50.6339108], [3.0823527, 50.6337974], [3.0824261, 50.6336964], [3.0824837, 50.6336086], [3.0825369, 50.6335103], [3.0825821, 50.6334187], [3.0826241, 50.6333071], [3.0826468, 50.6332389], [3.0826695, 50.6331673], [3.0826932, 50.6330665], [3.0827097, 50.6329636], [3.0827153, 50.6328948], [3.0827186, 50.6327893], [3.082714, 50.6326893], [3.082704, 50.6325842], [3.082682, 50.6324512], [3.0826561, 50.632325], [3.0824988, 50.6316215], [3.0823146, 50.6307309], [3.0822603, 50.6303865], [3.0822456, 50.6300122], [3.0822501, 50.6299297], [3.0822638, 50.629821], [3.0822963, 50.6296741], [3.0823605, 50.629491], [3.0824892, 50.6292697], [3.0829372, 50.6281144], [3.0831574, 50.6276274], [3.0834733, 50.6270438], [3.0837052, 50.6266156], [3.084505, 50.6251382], [3.0846255, 50.6248254], [3.0846581, 50.6247142], [3.084685, 50.6245994], [3.0846968, 50.624483], [3.0847037, 50.6243947], [3.0847106, 50.6242968], [3.0847063, 50.6241673], [3.0846982, 50.6240522], [3.0846821, 50.6239327], [3.0846631, 50.6238431], [3.0846423, 50.6237642], [3.0846106, 50.6236723], [3.0845713, 50.6235827], [3.0845196, 50.6234713], [3.0844318, 50.6233081], [3.084222, 50.623021], [3.0840752, 50.622846], [3.0839006, 50.6226594], [3.0835653, 50.6223319], [3.0826781, 50.6215048], [3.0823015, 50.6211953], [3.0820157, 50.6209463], [3.0817389, 50.6206844], [3.0815596, 50.620508], [3.0814792, 50.6204226], [3.0814019, 50.6203312], [3.0813153, 50.6202252], [3.081223, 50.6200991], [3.0811805, 50.6200354], [3.0811315, 50.6199555], [3.0810702, 50.6198361], [3.0810275, 50.6197421], [3.0809776, 50.619613], [3.0809389, 50.6194921], [3.0809088, 50.6193792], [3.0808828, 50.6192451], [3.0808711, 50.6191474], [3.0808643, 50.6190572], [3.0808596, 50.6189749], [3.0808595, 50.6188694], [3.0808657, 50.6187719], [3.080889, 50.6186271], [3.080918, 50.6184981], [3.0809533, 50.6183683], [3.0809957, 50.6182474], [3.0810443, 50.6181331], [3.0810958, 50.618028], [3.0811619, 50.6179137], [3.0812441, 50.6177827], [3.0812919, 50.6177187], [3.081375, 50.6176151], [3.0814747, 50.6174977], [3.0815544, 50.6174128], [3.0816466, 50.6173214], [3.0817437, 50.6172336], [3.0819144, 50.6170909], [3.0820311, 50.6170037], [3.0821526, 50.61692], [3.0822637, 50.6168495], [3.0824319, 50.6167534], [3.0825577, 50.6166851], [3.08271, 50.616606], [3.0828528, 50.6165348], [3.0829913, 50.6164663], [3.0831028, 50.6164082], [3.0831856, 50.616362], [3.0832549, 50.6163227], [3.0842122, 50.6167748], [3.0840983, 50.6170086], [3.0862509, 50.6179182], [3.086679, 50.6174573], [3.0871299, 50.617044], [3.0873487, 50.6168441], [3.0876477, 50.6165721], [3.0879786, 50.6162699], [3.0880675, 50.6161824], [3.0882432, 50.6160394], [3.0884481, 50.61584], [3.08853, 50.6157722], [3.0886197, 50.6156986], [3.0887082, 50.6156256], [3.0887353, 50.615605], [3.0891007, 50.6153149], [3.0904546, 50.6159462], [3.0911929, 50.6162848], [3.0910528, 50.6164015], [3.0908171, 50.6165633], [3.0911446, 50.6167227], [3.0915919, 50.6169308], [3.0920288, 50.6171359], [3.092791, 50.6167238], [3.0932493, 50.6169077], [3.0933333, 50.6169435], [3.0934855, 50.6170027], [3.0939821, 50.617218], [3.0940203, 50.6171864], [3.0940456, 50.6171665], [3.0951887, 50.6176826], [3.0954415, 50.6177996], [3.0957734, 50.6179476], [3.0943884, 50.619268], [3.0951711, 50.6197747], [3.0945848, 50.6202917], [3.0941264, 50.620696], [3.0942389, 50.6207347], [3.0941869, 50.6207843], [3.0940429, 50.6209262], [3.0939351, 50.6210295], [3.0938738, 50.621089], [3.0936794, 50.6212789], [3.0936464, 50.6213108], [3.0935091, 50.6215128], [3.09339, 50.6216472], [3.0932448, 50.6217308], [3.0939807, 50.6223695], [3.0939455, 50.6224109], [3.0942806, 50.6225324], [3.0942268, 50.6225897], [3.0942724, 50.6226295], [3.0943165, 50.6226673], [3.0943569, 50.6227035], [3.094446, 50.622779], [3.0944631, 50.6227935], [3.0945337, 50.6228426], [3.0944366, 50.6229876], [3.0944235, 50.6230063], [3.0944114, 50.6230234], [3.0943914, 50.6230551], [3.0943876, 50.6230611], [3.094363, 50.6230975], [3.0943379, 50.6231341], [3.0943125, 50.6231709], [3.0942894, 50.6232052], [3.0941389, 50.6234297], [3.0941286, 50.6234451], [3.0940758, 50.6235248], [3.094011, 50.623629], [3.0940779, 50.623661], [3.0941537, 50.6236891], [3.0943383, 50.6237406], [3.0945175, 50.6237888], [3.0951083, 50.6239498], [3.0952415, 50.6239922], [3.0953474, 50.6240228], [3.0956589, 50.6241063], [3.0959465, 50.6241682], [3.0969673, 50.6243837], [3.0974639, 50.6244858], [3.097667, 50.6245286], [3.0981186, 50.6246164], [3.0981751, 50.624627], [3.0982474, 50.6246375], [3.0982151, 50.6246773], [3.0981527, 50.6247542], [3.0979545, 50.6249984], [3.0978715, 50.6251007], [3.0978117, 50.6251744], [3.097724, 50.6252825], [3.0974708, 50.6255947], [3.0974535, 50.6256215], [3.0974168, 50.6256568], [3.0972088, 50.6259097], [3.0964051, 50.6268277], [3.0959191, 50.6271843], [3.0953269, 50.6276106], [3.0952733, 50.6276491], [3.095252, 50.6276824], [3.095259, 50.6277038], [3.0952776, 50.6277168], [3.0957391, 50.627953], [3.0960456, 50.6281194], [3.0962367, 50.6282231], [3.0962619, 50.6282425], [3.096288, 50.6282767], [3.0963221, 50.6282557], [3.0963738, 50.6282903], [3.09662, 50.6281611], [3.0966995, 50.628116], [3.0968432, 50.6280387], [3.0971537, 50.6278693], [3.0976302, 50.6283296], [3.0981341, 50.6288973], [3.0983111, 50.6288731], [3.0983814, 50.6289651], [3.0990378, 50.6297131], [3.0992335, 50.6296403], [3.0993447, 50.6296021], [3.0994221, 50.6295787], [3.0994931, 50.6295633], [3.0995667, 50.6295483], [3.0996735, 50.6295346], [3.0997899, 50.6295262], [3.1001168, 50.6295177], [3.1001466, 50.6295173], [3.1002268, 50.6295161], [3.1003403, 50.6295145], [3.1005195, 50.6295103], [3.1006654, 50.629587], [3.1006924, 50.6296042], [3.1008468, 50.6297027], [3.1014869, 50.6300881], [3.101872, 50.6303199], [3.1020849, 50.6304464], [3.1025353, 50.6307154], [3.1025939, 50.6307504], [3.1031204, 50.6310731], [3.103149, 50.631092], [3.1031824, 50.631114], [3.1034123, 50.6312475], [3.1036729, 50.6314032], [3.1037534, 50.6314552], [3.1038037, 50.6314868], [3.1038577, 50.6315188], [3.1039264, 50.6315593], [3.1033028, 50.6327412], [3.1027965, 50.6340772], [3.1027798, 50.634305], [3.1026864, 50.6343439], [3.1026278, 50.6343674], [3.1025767, 50.6343857], [3.1025387, 50.6343972], [3.1025011, 50.634406], [3.1024446, 50.6344128], [3.1023729, 50.6344186], [3.1022816, 50.6344208], [3.1020405, 50.6344266], [3.1019698, 50.634428], [3.1018335, 50.634429], [3.1010989, 50.6344377], [3.1011096, 50.6344653], [3.1010937, 50.6344951], [3.1009811, 50.6354285], [3.1009814, 50.6354881], [3.1009221, 50.6354959], [3.1007917, 50.6355161], [3.1001829, 50.6356104], [3.1000849, 50.6356256], [3.0999295, 50.6356496], [3.0991997, 50.6357625], [3.0991564, 50.6359257], [3.0991536, 50.6359364], [3.0991375, 50.6359973], [3.0990116, 50.6364724], [3.0990088, 50.6364832], [3.0990083, 50.636485], [3.0990034, 50.6365034], [3.0989822, 50.6365837], [3.0989779, 50.6365999], [3.098949, 50.6367089], [3.0989406, 50.6367407], [3.0989157, 50.6368738], [3.098911, 50.6368912], [3.0988925, 50.6369605], [3.0988607, 50.6370708], [3.0988315, 50.6371824], [3.0988125, 50.6372661], [3.0988099, 50.6372776], [3.0985258, 50.6383763], [3.0981523, 50.6383029], [3.09809, 50.6382893], [3.0977017, 50.638186], [3.0977872, 50.6377684], [3.0978859, 50.6373749], [3.0979165, 50.6372528], [3.0979495, 50.6371285], [3.0962688, 50.6369363], [3.0962444, 50.6370199], [3.0962308, 50.6370812], [3.0961674, 50.637319], [3.0960457, 50.6377889], [3.0959582, 50.6381161], [3.0957411, 50.6380976], [3.0955145, 50.6380186], [3.0953513, 50.6379365], [3.0949961, 50.6383534], [3.0945148, 50.6389011], [3.0953334, 50.6393164], [3.095191, 50.6394885], [3.0952991, 50.639522], [3.0953656, 50.6395427], [3.0963589, 50.6399407], [3.0965877, 50.6400728], [3.0967523, 50.6401811], [3.0960109, 50.6407959], [3.0958594, 50.6409052], [3.0957292, 50.6411353], [3.0956091, 50.6413477], [3.0950044, 50.6412678], [3.0945946, 50.6412137], [3.0945081, 50.6412023], [3.094199, 50.6411671], [3.0937026, 50.6409887], [3.093566, 50.6409429], [3.0935484, 50.6409842], [3.0932555, 50.6417523], [3.0932269, 50.6418391], [3.0932166, 50.6418961], [3.0932086, 50.641945], [3.0931925, 50.6420691], [3.0931876, 50.6422061], [3.0907999, 50.6396224], [3.0888685, 50.6371948], [3.0886464, 50.6372081], [3.0885773, 50.6372063], [3.0873927, 50.6371946], [3.0872444, 50.6372136], [3.0866257, 50.6373425], [3.0865762, 50.6373475], [3.0864957, 50.6373552], [3.0864281, 50.6373579], [3.0849266, 50.6373815], [3.0847118, 50.6373849], [3.0843926, 50.6373937], [3.0828452, 50.6374956], [3.0826907, 50.6375133], [3.0809733, 50.6378136], [3.0799264, 50.6380917], [3.079829, 50.6381141], [3.0794081, 50.6381754], [3.0785018, 50.6378298]]]}}, {"type": "Feature", "properties": {"nom": "Saint-Maurice Pellevoisin"}, "geometry": {"type": "Polygon", "coordinates": [[[3.074682, 50.6417], [3.0757427, 50.6406948], [3.0761169, 50.6403039], [3.0766031, 50.6397996], [3.0771109, 50.6392686], [3.0783159, 50.6380184], [3.0785018, 50.6378298], [3.0794081, 50.6381754], [3.079829, 50.6381141], [3.0799264, 50.6380917], [3.0809733, 50.6378136], [3.0826907, 50.6375133], [3.0828452, 50.6374956], [3.0843926, 50.6373937], [3.0847118, 50.6373849], [3.0849266, 50.6373815], [3.0864281, 50.6373579], [3.0864957, 50.6373552], [3.0865762, 50.6373475], [3.0866257, 50.6373425], [3.0872444, 50.6372136], [3.0873927, 50.6371946], [3.0885773, 50.6372063], [3.0886464, 50.6372081], [3.0888685, 50.6371948], [3.0907999, 50.6396224], [3.0931876, 50.6422061], [3.0935586, 50.6422141], [3.0935949, 50.6422157], [3.0938832, 50.6422556], [3.0937464, 50.6427669], [3.0937316, 50.6428192], [3.0937216, 50.6428635], [3.0937054, 50.6429145], [3.0937028, 50.6429402], [3.0937199, 50.6430184], [3.0937503, 50.6431271], [3.0937972, 50.6433031], [3.0938666, 50.6435583], [3.0951614, 50.6448353], [3.0962005, 50.6457293], [3.0961565, 50.6458614], [3.0963224, 50.6461533], [3.0964375, 50.6461525], [3.0973284, 50.6471641], [3.0972737, 50.6472155], [3.0973059, 50.647247], [3.0973299, 50.6472721], [3.09742, 50.6472598], [3.0976688, 50.6474475], [3.0979958, 50.6478267], [3.0979742, 50.647922], [3.1000414, 50.6497246], [3.1002481, 50.6496867], [3.100598, 50.6499627], [3.1005065, 50.6499999], [3.1010597, 50.6504768], [3.1011439, 50.6502893], [3.1040272, 50.6522841], [3.1021524, 50.6520981], [3.1004899, 50.6518525], [3.0960979, 50.6504535], [3.0948575, 50.6502071], [3.0946583, 50.6501619], [3.0943059, 50.6501943], [3.0942405, 50.6501979], [3.0939419, 50.6502177], [3.0938256, 50.6502348], [3.0937657, 50.6502433], [3.0934062, 50.6503758], [3.0931989, 50.6504524], [3.0930703, 50.6504791], [3.0929931, 50.6504967], [3.092911, 50.6505147], [3.0928388, 50.6505354], [3.0927633, 50.6505571], [3.092547, 50.6506115], [3.0924743, 50.6506294], [3.0923767, 50.650653], [3.0921811, 50.6507003], [3.0920184, 50.6507435], [3.0919984, 50.6507499], [3.0918331, 50.6508037], [3.0918216, 50.6508078], [3.0918011, 50.6508153], [3.0917593, 50.6508284], [3.0913617, 50.6509594], [3.0911751, 50.6510209], [3.0910885, 50.6509785], [3.0904812, 50.6511701], [3.0902564, 50.6512436], [3.089901, 50.6513566], [3.0897628, 50.6514004], [3.0896678, 50.6514301], [3.0896567, 50.6514336], [3.0897851, 50.6515329], [3.0900687, 50.6519924], [3.0901438, 50.6521604], [3.0901727, 50.652399], [3.0901777, 50.6524791], [3.0901831, 50.652616], [3.0901569, 50.6529158], [3.0901325, 50.6531823], [3.0900905, 50.65363], [3.0900296, 50.6542345], [3.0899524, 50.6549663], [3.0899289, 50.6553607], [3.0899319, 50.6554325], [3.0899839, 50.655711], [3.0900427, 50.6560082], [3.0900339, 50.6561469], [3.0889006, 50.6565217], [3.0888131, 50.6565508], [3.0882684, 50.6566949], [3.0879672, 50.6567699], [3.0877772, 50.656819], [3.08761, 50.6568568], [3.0875298, 50.656868], [3.0874434, 50.6568751], [3.0866866, 50.6568931], [3.0865649, 50.6568986], [3.0864585, 50.6569089], [3.0856342, 50.6570355], [3.0855616, 50.6570503], [3.0850785, 50.6571564], [3.0854243, 50.6565329], [3.0854201, 50.6564209], [3.0853018, 50.6560521], [3.0852712, 50.6556423], [3.0852411, 50.6554666], [3.0851909, 50.6552001], [3.0849112, 50.6544618], [3.0848822, 50.6543312], [3.0847697, 50.6540805], [3.0846987, 50.6539426], [3.0845676, 50.6536201], [3.0845415, 50.6535504], [3.08439, 50.6532436], [3.0842003, 50.6528332], [3.084173, 50.6527845], [3.084121, 50.6526882], [3.0840836, 50.6526197], [3.0838863, 50.6522441], [3.0838406, 50.6521296], [3.0838187, 50.6520747], [3.0836729, 50.6517006], [3.0836312, 50.6516299], [3.0832744, 50.6509436], [3.0834842, 50.6508195], [3.0834749, 50.6508138], [3.0825296, 50.6502384], [3.0817132, 50.6497241], [3.0812579, 50.6499003], [3.0803953, 50.6490949], [3.0813419, 50.6484587], [3.0819007, 50.6480607], [3.0821493, 50.6478837], [3.0821735, 50.6478665], [3.0829919, 50.6472476], [3.0820356, 50.6468597], [3.0819371, 50.6468188], [3.081183, 50.6465], [3.080521, 50.646224], [3.079169, 50.645657], [3.078616, 50.645427], [3.078404, 50.645311], [3.078256, 50.64521], [3.078099, 50.64509], [3.078006, 50.644984], [3.07787, 50.644792], [3.077789, 50.644615], [3.077523, 50.64381], [3.077492, 50.643823], [3.077461, 50.643836], [3.077457, 50.643837], [3.077282, 50.643911], [3.077143, 50.643969], [3.077135, 50.643972], [3.076926, 50.644059], [3.076896, 50.644071], [3.076854, 50.644088], [3.076791, 50.644114], [3.076732, 50.644139], [3.076618, 50.644186], [3.076599, 50.644194], [3.076491, 50.644239], [3.076433, 50.644264], [3.076378, 50.644287], [3.076322, 50.644311], [3.076313, 50.644315], [3.076244, 50.644343], [3.076177, 50.644371], [3.076107, 50.6444], [3.076032, 50.644431], [3.07596, 50.644461], [3.07588, 50.644495], [3.075866, 50.6445], [3.075844, 50.644509], [3.075811, 50.644523], [3.075777, 50.644484], [3.075729, 50.644426], [3.075642, 50.644315], [3.075613, 50.644277], [3.075588, 50.644237], [3.075568, 50.644206], [3.075531, 50.644137], [3.075517, 50.644108], [3.075503, 50.644067], [3.075482, 50.643985], [3.075475, 50.643929], [3.075472, 50.643879], [3.075474, 50.643765], [3.0756, 50.643236], [3.075605, 50.643214], [3.07561, 50.643175], [3.075615, 50.643133], [3.075616, 50.643105], [3.075615, 50.643074], [3.075614, 50.643055], [3.075609, 50.643032], [3.075605, 50.643019], [3.075596, 50.64299], [3.075464, 50.642605], [3.075438, 50.642527], [3.075344, 50.642253], [3.075214, 50.641869], [3.075199, 50.641828], [3.075194, 50.641814], [3.075184, 50.641812], [3.075121, 50.641797], [3.075108, 50.641794], [3.07505, 50.641781], [3.075019, 50.641774], [3.075009, 50.641772], [3.074956, 50.64176], [3.074931, 50.641755], [3.074883, 50.641744], [3.074871, 50.641741], [3.074829, 50.641732], [3.074759, 50.641717], [3.074682, 50.6417]]]}}, {"type": "Feature", "properties": {"nom": "Lomme"}, "geometry": {"type": "Polygon", "coordinates": [[[2.9679677, 50.6350914], [2.9696046, 50.6335893], [2.9696887, 50.6335331], [2.9707564, 50.6342564], [2.9718982, 50.6338395], [2.9722244, 50.6341609], [2.9725286, 50.634464], [2.9730102, 50.6343912], [2.9734518, 50.6343211], [2.9735923, 50.6343472], [2.974469, 50.6346734], [2.9751118, 50.6346775], [2.9761011, 50.6347782], [2.9770414, 50.6347731], [2.9776136, 50.6348381], [2.9779233, 50.6348516], [2.9783406, 50.6349023], [2.9790693, 50.6350952], [2.979557, 50.6350699], [2.9799479, 50.6349315], [2.9809564, 50.6346838], [2.9812033, 50.6344553], [2.981218, 50.6343875], [2.9812352, 50.6343777], [2.9812968, 50.6343423], [2.9814523, 50.6342624], [2.9817346, 50.6341345], [2.9819011, 50.634126], [2.9825062, 50.6339789], [2.9836772, 50.6338694], [2.9839011, 50.6338462], [2.9839468, 50.6338362], [2.9839964, 50.6338098], [2.9840677, 50.6337612], [2.9841346, 50.6336822], [2.9841587, 50.6336278], [2.9841905, 50.6335888], [2.9843612, 50.6334925], [2.9844511, 50.6334364], [2.9845088, 50.6333821], [2.984864, 50.6330792], [2.9851714, 50.6330066], [2.9862686, 50.6332992], [2.986497, 50.632955], [2.9870373, 50.6325221], [2.9870735, 50.6324943], [2.9872447, 50.6325493], [2.9879084, 50.6320552], [2.9885733, 50.6316528], [2.9886689, 50.6316254], [2.9886838, 50.6316172], [2.9888202, 50.6315422], [2.9891771, 50.6312876], [2.9894158, 50.6310614], [2.9895043, 50.6309993], [2.9896331, 50.6308997], [2.9901212, 50.6305254], [2.9914317, 50.6294862], [2.9927484, 50.6282979], [2.9926093, 50.6282345], [2.9925919, 50.6281548], [2.9935571, 50.6274799], [2.9948334, 50.6279743], [2.9959562, 50.6284419], [2.9960983, 50.6285011], [2.9961654, 50.6285294], [2.9970301, 50.6288932], [2.9971382, 50.62894], [2.9974129, 50.6290537], [2.9976567, 50.6291546], [2.9982667, 50.6288034], [3.0006288, 50.6274434], [3.0009462, 50.6272606], [3.0002587, 50.6265982], [3.000785, 50.6259291], [3.0033444, 50.6259753], [3.0039657, 50.6261535], [3.0043727, 50.6263253], [3.0050747, 50.6265145], [3.0050975, 50.6264594], [3.0052665, 50.6264985], [3.0053215, 50.6265112], [3.0053044, 50.6265717], [3.0078115, 50.6271311], [3.0114049, 50.6270728], [3.0116538, 50.6269957], [3.0122492, 50.6270226], [3.0138428, 50.6269378], [3.0139793, 50.6264904], [3.0135562, 50.6260234], [3.0124965, 50.6259916], [3.0123649, 50.6259394], [3.0122226, 50.625978], [3.0117999, 50.625969], [3.0116268, 50.6259209], [3.0116372, 50.6258148], [3.0094734, 50.6257722], [3.0095021, 50.6256813], [3.0075971, 50.6255197], [3.0072377, 50.6254633], [3.0072182, 50.6255522], [3.0065738, 50.6254272], [3.0058455, 50.6252572], [3.0057858, 50.6252445], [3.0058097, 50.6252101], [3.00446, 50.6249016], [3.0045414, 50.6247649], [3.0064754, 50.6251805], [3.0071895, 50.6252703], [3.0097005, 50.625514], [3.0107716, 50.6256409], [3.0115695, 50.625566], [3.0126634, 50.6255597], [3.0148205, 50.6254967], [3.0150752, 50.6255347], [3.0163799, 50.6255332], [3.0164691, 50.6253709], [3.0183958, 50.6253463], [3.0186089, 50.6254162], [3.0190563, 50.6256597], [3.0191619, 50.6261161], [3.019332, 50.6264119], [3.019344, 50.6264327], [3.0194695, 50.6265513], [3.0197543, 50.6268297], [3.0198602, 50.6273098], [3.0200504, 50.627616], [3.0207004, 50.6280502], [3.0209362, 50.6288522], [3.0209035, 50.6292343], [3.0207864, 50.6297039], [3.0207949, 50.6299395], [3.0207921, 50.6300302], [3.020832, 50.6301523], [3.0212826, 50.6306269], [3.0216709, 50.6308335], [3.0216558, 50.6308543], [3.0214233, 50.6310699], [3.0211896, 50.6312897], [3.0209722, 50.631492], [3.0203631, 50.6320665], [3.0202371, 50.6321882], [3.0200005, 50.6324172], [3.0197242, 50.6326835], [3.0194511, 50.6329498], [3.0191189, 50.6332727], [3.019039, 50.6333503], [3.018786, 50.6335965], [3.0186707, 50.6337086], [3.0168437, 50.6354757], [3.0169714, 50.6354971], [3.0170237, 50.6355059], [3.0172793, 50.6355746], [3.0177087, 50.6356899], [3.0178745, 50.6357346], [3.0179502, 50.635755], [3.0180796, 50.6357857], [3.0182272, 50.6358239], [3.0182978, 50.6358429], [3.0185291, 50.6358926], [3.0189911, 50.6359738], [3.0190931, 50.6359928], [3.0191849, 50.636009], [3.0195908, 50.6360804], [3.0196811, 50.6361029], [3.0199041, 50.6361711], [3.0208296, 50.6364325], [3.0209229, 50.6364654], [3.0211492, 50.6365456], [3.0218384, 50.6368347], [3.0218645, 50.6368462], [3.0219519, 50.636884], [3.0225332, 50.6371463], [3.0226035, 50.6371855], [3.0226568, 50.6372343], [3.0226887, 50.6372755], [3.0227562, 50.6373129], [3.0227889, 50.6373277], [3.0228484, 50.6373351], [3.0229486, 50.6373389], [3.0230171, 50.6373794], [3.0236238, 50.6377379], [3.0237004, 50.6377808], [3.02359, 50.6378528], [3.0235173, 50.6379008], [3.0233832, 50.6379803], [3.0232891, 50.6380303], [3.0231937, 50.6380755], [3.0226017, 50.6383775], [3.0225147, 50.6384152], [3.0223344, 50.6384976], [3.0218998, 50.6386963], [3.021626, 50.6388203], [3.0213824, 50.6389271], [3.0205434, 50.6392332], [3.0203694, 50.6393043], [3.0202314, 50.6393559], [3.0200445, 50.6394294], [3.0198406, 50.6395201], [3.0196717, 50.639629], [3.0196642, 50.6396361], [3.0195779, 50.6396839], [3.0195168, 50.6397228], [3.0194557, 50.6397653], [3.0193866, 50.6398132], [3.01926, 50.6399187], [3.0192058, 50.6399783], [3.0187384, 50.6405558], [3.0187061, 50.6406034], [3.0186446, 50.6407028], [3.0185845, 50.6407958], [3.0185552, 50.6408354], [3.0184339, 50.6409855], [3.0182982, 50.6412259], [3.0175132, 50.6418283], [3.0173517, 50.6419503], [3.0172336, 50.6420362], [3.0166249, 50.642508], [3.0163944, 50.6426899], [3.0163067, 50.6427593], [3.0154016, 50.6434624], [3.0153121, 50.6435423], [3.0150142, 50.6437793], [3.0146202, 50.6440521], [3.0142697, 50.6442153], [3.0136219, 50.6447721], [3.0135291, 50.6448575], [3.0136184, 50.6449341], [3.0134533, 50.644956], [3.01303, 50.6454281], [3.0130313, 50.6455192], [3.0128461, 50.6456815], [3.0124452, 50.6461745], [3.0120306, 50.6469426], [3.0119748, 50.6469916], [3.0113409, 50.6476648], [3.0112333, 50.6477883], [3.011017, 50.6480412], [3.0106607, 50.6485234], [3.0106423, 50.648559], [3.0106392, 50.6485728], [3.0101119, 50.6488165], [3.0094624, 50.6488903], [3.006695, 50.6493009], [3.0066127, 50.649313], [3.0060577, 50.6496455], [3.0055848, 50.6499287], [3.0032483, 50.6515822], [3.0026039, 50.6524617], [3.0025882, 50.6524832], [3.0024344, 50.6525261], [3.0018925, 50.65241], [3.0016502, 50.6524324], [3.001411, 50.652672], [3.0007769, 50.6537608], [3.0005386, 50.65417], [3.0002779, 50.6544589], [2.9992313, 50.65532], [2.9986623, 50.6556456], [2.9967769, 50.6564623], [2.9957544, 50.6566853], [2.9936685, 50.6573628], [2.9919203, 50.657744], [2.9905974, 50.6582095], [2.9894017, 50.6585023], [2.9885095, 50.6589631], [2.987959, 50.6591841], [2.986793, 50.6595721], [2.9865049, 50.6596396], [2.9862664, 50.6597281], [2.9858921, 50.6599774], [2.9839422, 50.6612596], [2.9834793, 50.6610997], [2.9832204, 50.6610794], [2.9821938, 50.6609181], [2.9814214, 50.6608422], [2.9812222, 50.6608121], [2.9800667, 50.6604927], [2.9798405, 50.6606266], [2.9793251, 50.6604138], [2.979012, 50.6602991], [2.9786205, 50.6601757], [2.978487, 50.660037], [2.9777661, 50.6596961], [2.9774636, 50.6594915], [2.9770368, 50.6594067], [2.9765638, 50.6592577], [2.9763669, 50.6591997], [2.97614, 50.6591329], [2.9761811, 50.6596032], [2.9752012, 50.659416], [2.9751491, 50.6593814], [2.9751816, 50.6592968], [2.9751747, 50.6592611], [2.9750912, 50.6592308], [2.9740603, 50.6589535], [2.9735921, 50.6587754], [2.9732961, 50.6587376], [2.9727811, 50.6587055], [2.9725222, 50.6586645], [2.9715001, 50.6582491], [2.9705854, 50.6579774], [2.9697871, 50.6577838], [2.9688532, 50.6573372], [2.9692751, 50.6564694], [2.9694534, 50.6564082], [2.9699613, 50.6553465], [2.9694268, 50.6549492], [2.9697453, 50.6537601], [2.9703053, 50.652674], [2.9705988, 50.652357], [2.9707067, 50.6521812], [2.9713572, 50.6514173], [2.9715102, 50.6512376], [2.9715311, 50.6511533], [2.971726, 50.6508789], [2.9717564, 50.6506824], [2.9716772, 50.6505992], [2.9716187, 50.6505377], [2.971544, 50.6504593], [2.9719322, 50.6497983], [2.972107, 50.6496781], [2.9733343, 50.6482766], [2.9733439, 50.6481714], [2.9734757, 50.6481356], [2.9737874, 50.6475311], [2.9739536, 50.6472467], [2.9741327, 50.6469614], [2.9743492, 50.6463353], [2.9744193, 50.6461327], [2.9744184, 50.6459362], [2.9745686, 50.645929], [2.9745598, 50.6458577], [2.9745465, 50.6457906], [2.9745116, 50.6457111], [2.974497, 50.645623], [2.9744724, 50.6454211], [2.9744626, 50.645336], [2.9744511, 50.645209], [2.9744373, 50.6450692], [2.9743985, 50.6447355], [2.9743949, 50.6446999], [2.9743844, 50.6445953], [2.9743699, 50.6445362], [2.9742817, 50.6445165], [2.9741657, 50.644473], [2.9738849, 50.6443685], [2.973559, 50.6442528], [2.9731216, 50.6441246], [2.972315, 50.643854], [2.9722313, 50.6438076], [2.9722358, 50.6435858], [2.9722974, 50.6432661], [2.9723154, 50.6432588], [2.9723285, 50.6432564], [2.9723943, 50.6432465], [2.9723986, 50.6432427], [2.9724236, 50.6432294], [2.9727238, 50.6417869], [2.9726409, 50.6417419], [2.9725708, 50.6417009], [2.9725079, 50.6416618], [2.9724462, 50.6416227], [2.9723841, 50.6415818], [2.9723099, 50.6415308], [2.9722432, 50.6414839], [2.9721767, 50.6414374], [2.9721501, 50.6414177], [2.9720947, 50.6413768], [2.9720363, 50.6413267], [2.9719942, 50.641292], [2.9719486, 50.6412547], [2.9719023, 50.6412131], [2.971871, 50.6411808], [2.9714033, 50.6407106], [2.9711475, 50.6404584], [2.9708562, 50.6401678], [2.9706429, 50.6399586], [2.9704949, 50.6398056], [2.9703914, 50.6397106], [2.9698007, 50.6392509], [2.9692933, 50.6387793], [2.9687524, 50.6383606], [2.9704225, 50.6365154], [2.970486, 50.6363188], [2.9702954, 50.635788], [2.97028, 50.6357451], [2.9702517, 50.6357191], [2.969499, 50.6350272], [2.9682459, 50.6352933], [2.9679677, 50.6350914]]]}}, {"type": "Feature", "properties": {"nom": "Hellemmes"}, "geometry": {"type": "Polygon", "coordinates": [[[3.0932448, 50.6217308], [3.09339, 50.6216472], [3.0935091, 50.6215128], [3.0936464, 50.6213108], [3.0936794, 50.6212789], [3.0938738, 50.621089], [3.0939351, 50.6210295], [3.0940429, 50.6209262], [3.0941869, 50.6207843], [3.0942389, 50.6207347], [3.0941264, 50.620696], [3.0945848, 50.6202917], [3.0951711, 50.6197747], [3.0943884, 50.619268], [3.0957734, 50.6179476], [3.0967042, 50.617033], [3.096892, 50.6171297], [3.0987043, 50.6180609], [3.099428, 50.6183099], [3.1001041, 50.6185985], [3.101295, 50.6177758], [3.1020182, 50.6172261], [3.102457, 50.6168969], [3.1025443, 50.6169575], [3.1027118, 50.6170637], [3.1033818, 50.6164895], [3.1040907, 50.615913], [3.1059957, 50.6153558], [3.1064737, 50.6168989], [3.1065261, 50.616881], [3.1070988, 50.6166145], [3.10815, 50.6176279], [3.1093277, 50.6172751], [3.109351, 50.6172671], [3.1101059, 50.6179066], [3.1104093, 50.6181636], [3.1106528, 50.6183698], [3.1106544, 50.6184659], [3.1115611, 50.619262], [3.1122681, 50.6187697], [3.1135332, 50.6197281], [3.1142472, 50.6202739], [3.1147628, 50.6206586], [3.1147692, 50.6206571], [3.1148574, 50.6206641], [3.1165083, 50.6191146], [3.1166445, 50.6189917], [3.1171292, 50.6186799], [3.1186197, 50.6177621], [3.1189416, 50.6179122], [3.1189731, 50.6179273], [3.1190934, 50.6179819], [3.1192409, 50.618051], [3.1194185, 50.6181292], [3.1196443, 50.6182373], [3.1197584, 50.6182887], [3.1198566, 50.6183355], [3.1199414, 50.6183803], [3.1202768, 50.6185739], [3.1202903, 50.6185822], [3.1206217, 50.6187592], [3.1208969, 50.6189314], [3.1211483, 50.6190779], [3.122325, 50.619762], [3.12249, 50.619859], [3.122526, 50.619877], [3.122554, 50.619888], [3.122583, 50.619899], [3.122621, 50.61991], [3.122659, 50.619919], [3.122703, 50.619923], [3.122753, 50.619923], [3.122789, 50.619921], [3.122826, 50.619914], [3.122856, 50.619906], [3.122874, 50.619899], [3.122914, 50.619879], [3.123417, 50.619531], [3.123444, 50.619512], [3.12349, 50.61948], [3.124502, 50.618778], [3.124655, 50.618866], [3.124668, 50.619054], [3.124671, 50.619099], [3.124675, 50.619163], [3.124679, 50.619223], [3.124682, 50.619262], [3.124685, 50.619305], [3.12469, 50.619379], [3.124695, 50.61945], [3.1247, 50.619525], [3.124707, 50.619623], [3.124713, 50.619708], [3.124718, 50.619783], [3.124719, 50.619797], [3.124819, 50.619857], [3.124896, 50.619904], [3.124898, 50.61993], [3.124904, 50.619998], [3.124911, 50.620069], [3.124917, 50.620141], [3.124924, 50.620209], [3.125286, 50.6202], [3.125314, 50.620199], [3.12536, 50.620198], [3.125703, 50.620191], [3.125704, 50.62022], [3.125705, 50.620251], [3.125706, 50.620311], [3.125707, 50.620332], [3.125717, 50.620784], [3.125719, 50.6209], [3.125723, 50.621051], [3.125723, 50.621056], [3.125724, 50.621104], [3.125725, 50.621158], [3.125502, 50.621165], [3.125388, 50.621224], [3.124796, 50.62153], [3.124597, 50.621632], [3.124514, 50.621573], [3.123459, 50.622218], [3.123397, 50.622256], [3.123222, 50.622363], [3.123187, 50.622384], [3.123129, 50.62242], [3.123086, 50.622446], [3.122993, 50.622502], [3.122975, 50.622513], [3.122955, 50.622526], [3.122918, 50.622548], [3.122845, 50.622593], [3.122782, 50.622631], [3.1227568, 50.6226464], [3.122728, 50.622664], [3.12271, 50.622674], [3.122674, 50.622697], [3.122594, 50.622746], [3.122584, 50.622752], [3.122559, 50.622767], [3.122554, 50.62277], [3.12255, 50.622772], [3.122525, 50.622788], [3.12252, 50.622791], [3.122449, 50.622834], [3.122404, 50.622861], [3.122369, 50.622883], [3.122325, 50.62291], [3.122293, 50.622929], [3.122124, 50.623032], [3.122023, 50.623094], [3.121993, 50.623162], [3.121978, 50.623195], [3.121491, 50.623247], [3.121519, 50.623281], [3.121572, 50.623346], [3.121739, 50.62356], [3.121782, 50.623609], [3.121814, 50.623648], [3.12184, 50.623678], [3.121863, 50.623706], [3.122255, 50.624171], [3.122274, 50.624194], [3.1223015, 50.6242276], [3.122319, 50.624247], [3.122355, 50.624246], [3.122486, 50.624277], [3.122582, 50.624306], [3.122669, 50.624341], [3.122758, 50.624388], [3.122835, 50.624448], [3.122867, 50.624482], [3.122887, 50.62451], [3.122905, 50.624545], [3.122919, 50.624582], [3.122946, 50.624732], [3.12299, 50.624896], [3.12301, 50.624982], [3.12302, 50.625057], [3.12306, 50.625264], [3.123126, 50.6256], [3.123157, 50.625786], [3.12319, 50.625951], [3.123224, 50.626113], [3.123243, 50.626163], [3.123261, 50.62621], [3.123315, 50.626268], [3.123359, 50.626301], [3.123481, 50.626338], [3.123582, 50.626342], [3.123631, 50.626357], [3.123519, 50.626494], [3.123402, 50.626642], [3.123281, 50.626798], [3.123169, 50.626944], [3.123061, 50.62708], [3.123001, 50.627159], [3.12292, 50.627222], [3.122808, 50.62731], [3.122751, 50.627328], [3.122529, 50.627379], [3.122014, 50.627488], [3.12196, 50.6275], [3.121825, 50.627528], [3.121834, 50.627566], [3.121866, 50.6277], [3.121872, 50.627759], [3.121869, 50.627809], [3.121856, 50.627895], [3.121839, 50.627977], [3.121805, 50.628066], [3.121516, 50.62885], [3.121214, 50.629602], [3.121168, 50.629714], [3.121115, 50.629851], [3.121107, 50.629873], [3.121045, 50.630035], [3.120982, 50.630197], [3.120978, 50.630207], [3.120945, 50.630294], [3.120921, 50.630356], [3.12086, 50.630531], [3.120809, 50.63071], [3.120775, 50.630868], [3.120752, 50.631042], [3.120733, 50.631224], [3.120726, 50.631393], [3.120731, 50.631559], [3.120747, 50.631737], [3.120772, 50.63192], [3.120802, 50.632109], [3.120835, 50.632295], [3.120867, 50.632472], [3.120868, 50.632477], [3.12087, 50.632485], [3.1209, 50.63264], [3.120932, 50.63279], [3.120941, 50.632848], [3.121062, 50.633664], [3.12115, 50.633945], [3.121242, 50.634237], [3.121345, 50.63452], [3.121446, 50.634778], [3.121575, 50.635104], [3.121537, 50.635114], [3.12149, 50.635127], [3.121444, 50.63514], [3.121421, 50.635147], [3.121368, 50.635162], [3.121148, 50.635226], [3.12093, 50.635288], [3.120773, 50.635321], [3.120702, 50.635333], [3.120645, 50.63534], [3.120495, 50.635338], [3.120383, 50.635327], [3.120331, 50.63532], [3.120298, 50.635313], [3.120272, 50.635304], [3.119686, 50.635113], [3.119645, 50.635102], [3.11961, 50.635094], [3.119571, 50.635088], [3.119535, 50.635083], [3.119493, 50.635078], [3.119454, 50.635076], [3.119366, 50.635071], [3.119323, 50.635073], [3.11926, 50.63508], [3.119197, 50.63509], [3.119124, 50.635107], [3.119098, 50.635114], [3.119051, 50.635131], [3.119, 50.635153], [3.118974, 50.635166], [3.118893, 50.635213], [3.118782, 50.635298], [3.118614, 50.635436], [3.118281, 50.635751], [3.118115, 50.635902], [3.118068, 50.635915], [3.1166318, 50.6363035], [3.116447, 50.636352], [3.116169, 50.6361653], [3.1158606, 50.6359625], [3.1157593, 50.6358908], [3.1156513, 50.6358075], [3.1152999, 50.6355179], [3.115004, 50.6352537], [3.11493, 50.635196], [3.1148881, 50.6351617], [3.1148306, 50.6351615], [3.1147662, 50.6351649], [3.1146961, 50.6351677], [3.1146546, 50.6351735], [3.1144028, 50.635209], [3.1138322, 50.6352832], [3.1137395, 50.6352977], [3.1136315, 50.6353121], [3.1131558, 50.6353835], [3.1130827, 50.6353932], [3.1127796, 50.6354333], [3.1126397, 50.6354459], [3.1125123, 50.6354512], [3.1124296, 50.6354524], [3.1123592, 50.6354516], [3.1122784, 50.635449], [3.1122033, 50.635443], [3.1121342, 50.6354355], [3.1118344, 50.6353961], [3.1115555, 50.6353578], [3.1113974, 50.6353338], [3.1112785, 50.6353158], [3.1111578, 50.6352966], [3.1108907, 50.6352498], [3.1098794, 50.6350547], [3.1097482, 50.6350308], [3.1083313, 50.6347544], [3.1077064, 50.6346192], [3.1074489, 50.6345584], [3.1072815, 50.6345199], [3.1071353, 50.6344871], [3.1069285, 50.6344408], [3.1067487, 50.6344006], [3.1065158, 50.6343496], [3.1061367, 50.6353182], [3.1047193, 50.6352168], [3.104009, 50.6351659], [3.1035812, 50.6351353], [3.103522, 50.6351336], [3.1032419, 50.6350833], [3.1032163, 50.6350815], [3.1032568, 50.634737], [3.1028189, 50.6347106], [3.1029219, 50.63425], [3.1027798, 50.634305], [3.1027965, 50.6340772], [3.1033028, 50.6327412], [3.1039264, 50.6315593], [3.1038577, 50.6315188], [3.1038037, 50.6314868], [3.1037534, 50.6314552], [3.1036729, 50.6314032], [3.1034123, 50.6312475], [3.1031824, 50.631114], [3.103149, 50.631092], [3.1031204, 50.6310731], [3.1025939, 50.6307504], [3.1025353, 50.6307154], [3.1020849, 50.6304464], [3.101872, 50.6303199], [3.1014869, 50.6300881], [3.1008468, 50.6297027], [3.1006924, 50.6296042], [3.1006654, 50.629587], [3.1005195, 50.6295103], [3.1003403, 50.6295145], [3.1002268, 50.6295161], [3.1001466, 50.6295173], [3.1001168, 50.6295177], [3.0997899, 50.6295262], [3.0996735, 50.6295346], [3.0995667, 50.6295483], [3.0994931, 50.6295633], [3.0994221, 50.6295787], [3.0993447, 50.6296021], [3.0992335, 50.6296403], [3.0990378, 50.6297131], [3.0983814, 50.6289651], [3.0983111, 50.6288731], [3.0981341, 50.6288973], [3.0976302, 50.6283296], [3.0971537, 50.6278693], [3.0968432, 50.6280387], [3.0966995, 50.628116], [3.09662, 50.6281611], [3.0963738, 50.6282903], [3.0963221, 50.6282557], [3.096288, 50.6282767], [3.0962619, 50.6282425], [3.0962367, 50.6282231], [3.0960456, 50.6281194], [3.0957391, 50.627953], [3.0952776, 50.6277168], [3.095259, 50.6277038], [3.095252, 50.6276824], [3.0952733, 50.6276491], [3.0953269, 50.6276106], [3.0959191, 50.6271843], [3.0964051, 50.6268277], [3.0972088, 50.6259097], [3.0974168, 50.6256568], [3.0974535, 50.6256215], [3.0974708, 50.6255947], [3.097724, 50.6252825], [3.0978117, 50.6251744], [3.0978715, 50.6251007], [3.0979545, 50.6249984], [3.0981527, 50.6247542], [3.0982151, 50.6246773], [3.0982474, 50.6246375], [3.0981751, 50.624627], [3.0981186, 50.6246164], [3.097667, 50.6245286], [3.0974639, 50.6244858], [3.0969673, 50.6243837], [3.0959465, 50.6241682], [3.0956589, 50.6241063], [3.0953474, 50.6240228], [3.0952415, 50.6239922], [3.0951083, 50.6239498], [3.0945175, 50.6237888], [3.0943383, 50.6237406], [3.0941537, 50.6236891], [3.0940779, 50.623661], [3.094011, 50.623629], [3.0940758, 50.6235248], [3.0941286, 50.6234451], [3.0941389, 50.6234297], [3.0942894, 50.6232052], [3.0943125, 50.6231709], [3.0943379, 50.6231341], [3.094363, 50.6230975], [3.0943876, 50.6230611], [3.0943914, 50.6230551], [3.0944114, 50.6230234], [3.0944235, 50.6230063], [3.0944366, 50.6229876], [3.0945337, 50.6228426], [3.0944631, 50.6227935], [3.094446, 50.622779], [3.0943569, 50.6227035], [3.0943165, 50.6226673], [3.0942724, 50.6226295], [3.0942268, 50.6225897], [3.0942806, 50.6225324], [3.0939455, 50.6224109], [3.0939807, 50.6223695], [3.0932448, 50.6217308]]]}}, {"type": "Feature", "properties": {"nom": "Euralille"}, "geometry": {"type": "Polygon", "coordinates": [[[3.0718253, 50.6373388], [3.0719991, 50.6372597], [3.0721593, 50.6372072], [3.0723689, 50.6371544], [3.0723848, 50.6371504], [3.0724764, 50.6371273], [3.0725802, 50.6371012], [3.0727043, 50.6370699], [3.0728815, 50.6370252], [3.073037, 50.6369861], [3.0731528, 50.6369569], [3.0731908, 50.6369473], [3.0732713, 50.636927], [3.073372, 50.6369016], [3.0735071, 50.6368676], [3.0736276, 50.6368373], [3.0737358, 50.63681], [3.0737651, 50.6368026], [3.0738594, 50.6367789], [3.0739581, 50.636754], [3.0739983, 50.6367439], [3.0740278, 50.6367365], [3.0741447, 50.636707], [3.0742453, 50.6366816], [3.0742937, 50.6366694], [3.07452, 50.6366124], [3.074701, 50.6365668], [3.0747512, 50.6365541], [3.0747931, 50.6365436], [3.0751093, 50.6364639], [3.0752322, 50.636433], [3.0753885, 50.6363936], [3.0754763, 50.6363715], [3.0755046, 50.6363643], [3.0756143, 50.6363367], [3.0757412, 50.6363047], [3.0758423, 50.6362793], [3.0759081, 50.6362627], [3.0760075, 50.6362377], [3.0760397, 50.6362296], [3.0761387, 50.6362046], [3.0767482, 50.6371801], [3.0768865, 50.6374014], [3.0769058, 50.6374323], [3.0768692, 50.6374704], [3.0767981, 50.6375446], [3.0767439, 50.6375816], [3.0767179, 50.6375994], [3.0765949, 50.6376834], [3.0765817, 50.6376757], [3.0765318, 50.637715], [3.0764752, 50.6376843], [3.0764407, 50.6377095], [3.0763399, 50.6376511], [3.0760259, 50.6379784], [3.0759007, 50.6380102], [3.074671, 50.6383187], [3.0741704, 50.6384443], [3.073924, 50.6383377], [3.073836, 50.6384209], [3.073816, 50.6384123], [3.0737911, 50.6384372], [3.0737105, 50.6384021], [3.0736085, 50.6383579], [3.0734231, 50.6382777], [3.0733119, 50.6382296], [3.0730545, 50.6381182], [3.0728572, 50.6380328], [3.0725785, 50.6379122], [3.0724608, 50.6378612], [3.0723674, 50.6378208], [3.0723977, 50.6377923], [3.0724816, 50.6377134], [3.0724937, 50.637702], [3.072457, 50.6376986], [3.0724609, 50.6376533], [3.0724647, 50.6376097], [3.0721274, 50.6375628], [3.0718253, 50.6373388]]]}}]}