{"type": "FeatureCollection", "properties": {"source": "OpenStreetMap contributors, via Nominatim", "licence": "ODbL 1.0 — https://www.openstreetmap.org/copyright"}, "features": [{"type": "Feature", "properties": {"nom": "Lyon 1er", "arrondissement": 1}, "geometry": {"type": "Polygon", "coordinates": [[[4.8131867, 45.7711446], [4.813942, 45.7690521], [4.8140064, 45.7687794], [4.8141551, 45.7685482], [4.8143342, 45.7683369], [4.8145513, 45.7681506], [4.8148122, 45.7679881], [4.8151107, 45.7678443], [4.8154366, 45.7677185], [4.8157838, 45.7676077], [4.8161449, 45.7675111], [4.816514, 45.7674276], [4.8168807, 45.7673566], [4.8172389, 45.7672951], [4.817526, 45.7672568], [4.8178166, 45.7672308], [4.8181122, 45.767216], [4.8184095, 45.7672084], [4.8193049, 45.7671958], [4.8196056, 45.7671873], [4.822032, 45.7676987], [4.8232567, 45.7678655], [4.8259897, 45.7680006], [4.828003, 45.7674941], [4.8294062, 45.7667052], [4.829837, 45.7661764], [4.8306188, 45.7645928], [4.8312464, 45.7648406], [4.83165, 45.7650008], [4.8317112, 45.76492], [4.8317558, 45.7648527], [4.831805, 45.7647787], [4.8318459, 45.7647765], [4.8319062, 45.7647732], [4.8323415, 45.7647492], [4.8323567, 45.7646633], [4.8323714, 45.7646638], [4.832473, 45.7646669], [4.8329403, 45.7646818], [4.833158, 45.7646888], [4.8331453, 45.7648953], [4.8332218, 45.7648984], [4.8333619, 45.7649042], [4.834228, 45.7649443], [4.8343059, 45.7649479], [4.8343099, 45.7651057], [4.8350047, 45.7652149], [4.8358233, 45.7652914], [4.8359237, 45.7653007], [4.8360527, 45.7653049], [4.8368962, 45.7653311], [4.8368948, 45.7653447], [4.8368504, 45.7658153], [4.8368253, 45.7660597], [4.8368177, 45.7661337], [4.8369076, 45.7661353], [4.8375226, 45.7661459], [4.8380796, 45.7661768], [4.839716, 45.7662799], [4.8397045, 45.7675289], [4.8397011, 45.7686244], [4.8394484, 45.7723422], [4.839488, 45.7725792], [4.8397727, 45.7734775], [4.8387702, 45.7737777], [4.8384556, 45.7738737], [4.8376806, 45.7741252], [4.8377252, 45.7741991], [4.8375756, 45.7742543], [4.8375068, 45.7741505], [4.8374062, 45.7741801], [4.8374376, 45.7743206], [4.8374355, 45.7743416], [4.837321, 45.7741962], [4.8372365, 45.7742465], [4.8372127, 45.7743734], [4.837266, 45.7744666], [4.8369519, 45.7746726], [4.8366737, 45.7747332], [4.8366432, 45.774744], [4.8366446, 45.7747498], [4.8359089, 45.7747907], [4.8358948, 45.7747524], [4.8357907, 45.774699], [4.8354002, 45.7746355], [4.8321971, 45.7743644], [4.8312195, 45.7742932], [4.8274997, 45.774006], [4.8274831, 45.7740215], [4.8274808, 45.7740035], [4.8236459, 45.7737018], [4.821606, 45.7730706], [4.8210131, 45.7728915], [4.8206124, 45.772798], [4.8185376, 45.7722033], [4.8160338, 45.7713693], [4.8159626, 45.7713464], [4.8155854, 45.7712496], [4.815572, 45.7712468], [4.8155449, 45.7712979], [4.815609, 45.7713151], [4.8156271, 45.771325], [4.8156427, 45.7713432], [4.8156499, 45.7713719], [4.8156407, 45.7713958], [4.815618, 45.7714159], [4.8155934, 45.7714268], [4.8155523, 45.7714308], [4.8151248, 45.7713619], [4.8147482, 45.7712454], [4.8147509, 45.7712402], [4.8142355, 45.7712165], [4.8141275, 45.7713065], [4.8141195, 45.7713253], [4.8140935, 45.7713351], [4.8139583, 45.7713123], [4.8137839, 45.7712687], [4.8131867, 45.7711446]]]}}, {"type": "Feature", "properties": {"nom": "Lyon 2e", "arrondissement": 2}, "geometry": {"type": "Polygon", "coordinates": [[[4.8130295, 45.7398028], [4.8131414, 45.7379978], [4.8134848, 45.736191], [4.8141235, 45.7334873], [4.8142045, 45.7331984], [4.8145004, 45.7322733], [4.8146419, 45.7319715], [4.8147045, 45.7318825], [4.814768, 45.7318199], [4.8148937, 45.7317317], [4.8152747, 45.7315107], [4.8157079, 45.7313374], [4.8159701, 45.7312302], [4.8160772, 45.7311765], [4.8164522, 45.730903], [4.8165868, 45.7307894], [4.8167122, 45.7306403], [4.8168767, 45.7303964], [4.8170354, 45.7300933], [4.8171546, 45.7298061], [4.8172373, 45.7295698], [4.8173923, 45.7289543], [4.8173644, 45.7288392], [4.8178205, 45.7264919], [4.8186823, 45.7265957], [4.818813, 45.7272319], [4.8190814, 45.728383], [4.8192477, 45.7290652], [4.819652, 45.7306517], [4.8199193, 45.7315822], [4.820581, 45.7334528], [4.8208675, 45.7346438], [4.8251734, 45.740727], [4.8288871, 45.7450638], [4.8304567, 45.746415], [4.8305257, 45.7465164], [4.8305844, 45.7465999], [4.8321038, 45.748174], [4.8322622, 45.7484169], [4.8336655, 45.7504174], [4.8353506, 45.75249], [4.8354029, 45.7526353], [4.8382792, 45.7566656], [4.8383556, 45.7567897], [4.8384204, 45.7567779], [4.838485, 45.7569033], [4.839254, 45.759981], [4.8392748, 45.7601666], [4.8398042, 45.7635554], [4.8397917, 45.765585], [4.839716, 45.7662799], [4.8380796, 45.7661768], [4.8375226, 45.7661459], [4.8369076, 45.7661353], [4.8368177, 45.7661337], [4.8368253, 45.7660597], [4.8368504, 45.7658153], [4.8368948, 45.7653447], [4.8368962, 45.7653311], [4.8360527, 45.7653049], [4.8359237, 45.7653007], [4.8358233, 45.7652914], [4.8350047, 45.7652149], [4.8343099, 45.7651057], [4.8343059, 45.7649479], [4.834228, 45.7649443], [4.8333619, 45.7649042], [4.8332218, 45.7648984], [4.8331453, 45.7648953], [4.833158, 45.7646888], [4.8329403, 45.7646818], [4.832473, 45.7646669], [4.8323714, 45.7646638], [4.8323567, 45.7646633], [4.8323415, 45.7647492], [4.8319062, 45.7647732], [4.8318459, 45.7647765], [4.831805, 45.7647787], [4.8317558, 45.7648527], [4.8317112, 45.76492], [4.83165, 45.7650008], [4.8312464, 45.7648406], [4.8306188, 45.7645928], [4.8306544, 45.7629345], [4.8299215, 45.7608091], [4.8294397, 45.7604286], [4.8286411, 45.7593876], [4.828395, 45.7590823], [4.8281134, 45.7587943], [4.8278069, 45.7585124], [4.8271665, 45.7579626], [4.8268579, 45.7576848], [4.82657, 45.7574005], [4.8262945, 45.7570808], [4.825645, 45.7564629], [4.8239507, 45.7531633], [4.8225789, 45.7514754], [4.822567, 45.7514592], [4.8225485, 45.7514338], [4.8224992, 45.7513663], [4.8224359, 45.7512796], [4.82125, 45.75061], [4.8211152, 45.7505341], [4.8207537, 45.7503508], [4.8196829, 45.7498262], [4.8193302, 45.7496475], [4.8189801, 45.7494641], [4.8186526, 45.7492775], [4.818333, 45.7490757], [4.8176471, 45.7485894], [4.8172928, 45.7483111], [4.8167405, 45.7478417], [4.8163959, 45.7475207], [4.8161483, 45.7472746], [4.8156435, 45.7467322], [4.8150731, 45.7460597], [4.814777, 45.745644], [4.8144402, 45.7451732], [4.814123, 45.7446426], [4.8135773, 45.7433916], [4.8134468, 45.7424943], [4.8131065, 45.7407022], [4.8130295, 45.7398028]]]}}, {"type": "Feature", "properties": {"nom": "Lyon 3e", "arrondissement": 3}, "geometry": {"type": "Polygon", "coordinates": [[[4.8384204, 45.7567779], [4.8397009, 45.7564133], [4.8401941, 45.756247], [4.8429033, 45.7553191], [4.8429679, 45.7552969], [4.8437642, 45.7550075], [4.8455045, 45.7544296], [4.846117, 45.7542105], [4.8462352, 45.7541682], [4.8463708, 45.7541217], [4.8464653, 45.7540893], [4.8467998, 45.7539734], [4.8469929, 45.7539082], [4.8490234, 45.7532013], [4.8492968, 45.7531097], [4.849796, 45.7529329], [4.8498948, 45.7529131], [4.8498989, 45.7529117], [4.850111, 45.7528405], [4.8503431, 45.7527626], [4.8506979, 45.7526378], [4.850736, 45.7526268], [4.8508475, 45.7525851], [4.8509855, 45.7525403], [4.851092, 45.752502], [4.8522377, 45.7520873], [4.8523403, 45.7520525], [4.8527263, 45.751918], [4.8528163, 45.7518908], [4.8528563, 45.7518772], [4.8529594, 45.7518484], [4.8530299, 45.7518187], [4.8530573, 45.7518094], [4.8532829, 45.7517328], [4.8534575, 45.7516745], [4.8535478, 45.7516433], [4.8536548, 45.7516074], [4.853657, 45.7516068], [4.8537202, 45.7515862], [4.8537872, 45.7515597], [4.854008, 45.7514849], [4.8540164, 45.7514819], [4.8542008, 45.7514272], [4.8551894, 45.7510888], [4.8553165, 45.7510428], [4.8554849, 45.750982], [4.8557608, 45.7508822], [4.8558146, 45.7508627], [4.8565071, 45.7506114], [4.8569612, 45.7504514], [4.8571604, 45.750387], [4.8572195, 45.7503668], [4.8575607, 45.7502503], [4.8575783, 45.750274], [4.8583311, 45.7500136], [4.8599511, 45.7494457], [4.859956, 45.7494375], [4.8599649, 45.7494402], [4.8603054, 45.7493153], [4.8604385, 45.7492688], [4.8610687, 45.7490577], [4.8616329, 45.7488613], [4.8617605, 45.7488172], [4.8617968, 45.7488049], [4.8618213, 45.7487964], [4.8620806, 45.7487071], [4.862575, 45.7485368], [4.8626683, 45.7485047], [4.8629354, 45.7484122], [4.8635068, 45.7482154], [4.8636393, 45.7481683], [4.864213, 45.7479703], [4.8642718, 45.74795], [4.8652133, 45.7476254], [4.8653009, 45.7475952], [4.8653424, 45.7475812], [4.8660105, 45.7473562], [4.8666025, 45.7471569], [4.8667008, 45.7471238], [4.8671314, 45.7469788], [4.8672114, 45.7469505], [4.8672279, 45.7469447], [4.868043, 45.7466571], [4.8681383, 45.7466235], [4.8681993, 45.7466017], [4.8696813, 45.7460938], [4.8697398, 45.7460742], [4.8712409, 45.7455588], [4.8714192, 45.7454954], [4.8714895, 45.7454703], [4.8715121, 45.7454626], [4.8718281, 45.7453512], [4.8719844, 45.7452961], [4.8720355, 45.7452786], [4.8720475, 45.7452742], [4.8720989, 45.7452566], [4.8732228, 45.7448729], [4.873332, 45.7448347], [4.8744622, 45.7444388], [4.8745655, 45.7444026], [4.875049, 45.7442364], [4.8750669, 45.7442303], [4.8752162, 45.744179], [4.8755494, 45.7440644], [4.8757054, 45.7440108], [4.875811, 45.7439745], [4.8758362, 45.7439658], [4.8760106, 45.7439059], [4.8764571, 45.7437524], [4.8768568, 45.7436151], [4.8769881, 45.7435671], [4.877192, 45.7434989], [4.8775184, 45.7433853], [4.8777166, 45.7433192], [4.8778101, 45.743288], [4.8781865, 45.7431622], [4.8784108, 45.7430805], [4.8781313, 45.7427093], [4.8799987, 45.7423933], [4.8800315, 45.7425107], [4.8804752, 45.7423958], [4.8830498, 45.741993], [4.8858282, 45.7411148], [4.8918727, 45.739123], [4.8921378, 45.739017], [4.891985, 45.739192], [4.892026, 45.739301], [4.892058, 45.739413], [4.892066, 45.739456], [4.892065, 45.739464], [4.892065, 45.739466], [4.892058, 45.739488], [4.892052, 45.739505], [4.892039, 45.739533], [4.892023, 45.739562], [4.892018, 45.739569], [4.892013, 45.739577], [4.891985, 45.739618], [4.891947, 45.739685], [4.891937, 45.739725], [4.891934, 45.739758], [4.891936, 45.739786], [4.891943, 45.739811], [4.891945, 45.739817], [4.891947, 45.739825], [4.891949, 45.739833], [4.891951, 45.739838], [4.891952, 45.739841], [4.891955, 45.73985], [4.891959, 45.739858], [4.891963, 45.739866], [4.891967, 45.739874], [4.891972, 45.739881], [4.891976, 45.739886], [4.892001, 45.739917], [4.892036, 45.739944], [4.892619, 45.740283], [4.892966, 45.740484], [4.893324, 45.741154], [4.8935262, 45.7415308], [4.893765, 45.7419758], [4.8937945, 45.7420309], [4.893821, 45.7420803], [4.893845, 45.742125], [4.893851, 45.742133], [4.894249, 45.742837], [4.8942807, 45.7429403], [4.8944664, 45.7432961], [4.8945066, 45.7433526], [4.894696, 45.7435526], [4.89483, 45.743669], [4.895434, 45.744824], [4.896185, 45.74622], [4.8964272, 45.7467527], [4.896632, 45.747203], [4.8966633, 45.747271], [4.896667, 45.747279], [4.896801, 45.74849], [4.8968505, 45.7486668], [4.896866, 45.748722], [4.897115, 45.74962], [4.89721, 45.750206], [4.897328, 45.750388], [4.897333, 45.750395], [4.8974242, 45.7504888], [4.8975508, 45.7510569], [4.8975844, 45.7511839], [4.897713, 45.751576], [4.897909, 45.751984], [4.8984245, 45.7529699], [4.8983777, 45.7529747], [4.898328, 45.7530021], [4.8982186, 45.7530369], [4.898204, 45.7530416], [4.8980117, 45.7531027], [4.8971595, 45.7533267], [4.8968528, 45.7534262], [4.8967921, 45.7534397], [4.8967756, 45.7534433], [4.8967211, 45.7534554], [4.8966458, 45.7534664], [4.8964827, 45.753491], [4.896045, 45.7535704], [4.8957232, 45.7536391], [4.8956511, 45.7536629], [4.8953637, 45.7537263], [4.8952903, 45.7537425], [4.8952263, 45.7537556], [4.8950755, 45.7537865], [4.8948068, 45.7538225], [4.8946682, 45.7538511], [4.8942016, 45.7539472], [4.8939723, 45.7540061], [4.8939251, 45.7540182], [4.8935742, 45.7540545], [4.8935319, 45.754058], [4.8934486, 45.754065], [4.8933747, 45.7540571], [4.8932322, 45.7540609], [4.8918678, 45.7541291], [4.8914549, 45.7540965], [4.8912345, 45.7541027], [4.8911215, 45.7540994], [4.8909071, 45.75411], [4.8907715, 45.7541139], [4.8905486, 45.7541238], [4.8902423, 45.7541368], [4.8899207, 45.7541515], [4.8895837, 45.7541705], [4.8893695, 45.7541805], [4.8892784, 45.7541847], [4.8891516, 45.7541904], [4.8876768, 45.7542609], [4.8874993, 45.7542983], [4.8873144, 45.7543023], [4.8868307, 45.7543241], [4.8863749, 45.7543065], [4.8859212, 45.7542944], [4.885825, 45.7542909], [4.8856565, 45.7542746], [4.8855251, 45.7542622], [4.8854876, 45.7542633], [4.8851759, 45.7542724], [4.8849345, 45.7542716], [4.8848628, 45.7542718], [4.8847861, 45.7542735], [4.8847327, 45.7542748], [4.8846706, 45.7542763], [4.8845387, 45.7542812], [4.8844652, 45.7542851], [4.8844281, 45.754287], [4.8843568, 45.7542894], [4.8841139, 45.7543101], [4.8839003, 45.7543226], [4.8834136, 45.7543589], [4.8832976, 45.7543713], [4.8827848, 45.7544316], [4.8826925, 45.7544435], [4.8820602, 45.7545211], [4.8819302, 45.7545397], [4.8813373, 45.7546155], [4.8811144, 45.7546416], [4.8810179, 45.7546539], [4.8808894, 45.75467], [4.8807392, 45.7546898], [4.8804281, 45.75473], [4.879762, 45.7548138], [4.8796512, 45.754828], [4.8794839, 45.7548489], [4.8791473, 45.7548917], [4.8790268, 45.7549094], [4.8788842, 45.75493], [4.8784472, 45.7549847], [4.8783464, 45.754993], [4.8782515, 45.755], [4.8778353, 45.7550046], [4.8774749, 45.7549962], [4.8773494, 45.7549912], [4.8772543, 45.7549857], [4.877178, 45.7549815], [4.8769672, 45.7549732], [4.8763917, 45.7549482], [4.8763072, 45.7549445], [4.8757162, 45.7548892], [4.8755217, 45.7549366], [4.8755062, 45.7549745], [4.8755767, 45.755047], [4.8760988, 45.7553209], [4.8761457, 45.7555925], [4.8761546, 45.7557679], [4.8761625, 45.7559136], [4.8764053, 45.7572365], [4.8765672, 45.7582366], [4.8762491, 45.7582935], [4.8759686, 45.7583438], [4.8758905, 45.7583577], [4.8757035, 45.7583912], [4.8755143, 45.7584251], [4.8753728, 45.7584504], [4.8737346, 45.7587437], [4.8744196, 45.7605251], [4.8728625, 45.7609732], [4.8727543, 45.7610043], [4.8725435, 45.7610649], [4.8725248, 45.7610703], [4.8724087, 45.7611037], [4.8723733, 45.7611139], [4.8718482, 45.761265], [4.871576, 45.7616175], [4.8707816, 45.7626464], [4.8699442, 45.763731], [4.8679317, 45.7637301], [4.8670339, 45.7637299], [4.8658708, 45.7637227], [4.8648546, 45.7637164], [4.8637994, 45.7637101], [4.8628614, 45.7637031], [4.8620463, 45.7637106], [4.861302, 45.7636989], [4.8609671, 45.7636969], [4.8606961, 45.763696], [4.8596526, 45.7636902], [4.8583875, 45.763687], [4.8579985, 45.7636859], [4.8573161, 45.7636736], [4.8562733, 45.7636646], [4.8552403, 45.7636643], [4.853498, 45.7636507], [4.8525049, 45.7636407], [4.8514744, 45.7636343], [4.843886, 45.7635939], [4.84182, 45.7635823], [4.8414228, 45.7635801], [4.8410948, 45.7635759], [4.8398042, 45.7635554], [4.8392748, 45.7601666], [4.839254, 45.759981], [4.838485, 45.7569033], [4.8384204, 45.7567779]]]}}, {"type": "Feature", "properties": {"nom": "Lyon 4e", "arrondissement": 4}, "geometry": {"type": "Polygon", "coordinates": [[[4.809026, 45.7767261], [4.8092548, 45.7757846], [4.809487, 45.7749823], [4.8103906, 45.7739043], [4.8120614, 45.7725845], [4.8131867, 45.7711446], [4.8137839, 45.7712687], [4.8139583, 45.7713123], [4.8140935, 45.7713351], [4.8141195, 45.7713253], [4.8141275, 45.7713065], [4.8142355, 45.7712165], [4.8147509, 45.7712402], [4.8147482, 45.7712454], [4.8151248, 45.7713619], [4.8155523, 45.7714308], [4.8155934, 45.7714268], [4.815618, 45.7714159], [4.8156407, 45.7713958], [4.8156499, 45.7713719], [4.8156427, 45.7713432], [4.8156271, 45.771325], [4.815609, 45.7713151], [4.8155449, 45.7712979], [4.815572, 45.7712468], [4.8155854, 45.7712496], [4.8159626, 45.7713464], [4.8160338, 45.7713693], [4.8185376, 45.7722033], [4.8206124, 45.772798], [4.8210131, 45.7728915], [4.821606, 45.7730706], [4.8236459, 45.7737018], [4.8274808, 45.7740035], [4.8274831, 45.7740215], [4.8274997, 45.774006], [4.8312195, 45.7742932], [4.8321971, 45.7743644], [4.8354002, 45.7746355], [4.8357907, 45.774699], [4.8358948, 45.7747524], [4.8359089, 45.7747907], [4.8366446, 45.7747498], [4.8366432, 45.774744], [4.8366737, 45.7747332], [4.8369519, 45.7746726], [4.837266, 45.7744666], [4.8372127, 45.7743734], [4.8372365, 45.7742465], [4.837321, 45.7741962], [4.8374355, 45.7743416], [4.8374376, 45.7743206], [4.8374062, 45.7741801], [4.8375068, 45.7741505], [4.8375756, 45.7742543], [4.8377252, 45.7741991], [4.8376806, 45.7741252], [4.8384556, 45.7738737], [4.8387702, 45.7737777], [4.8397727, 45.7734775], [4.8427457, 45.7782838], [4.8430325, 45.778919], [4.8412974, 45.7794349], [4.8412657, 45.7794764], [4.8406882, 45.7802323], [4.8403808, 45.7804754], [4.8400741, 45.7807308], [4.8399577, 45.7807963], [4.8396346, 45.7810159], [4.8394996, 45.7811932], [4.8392572, 45.7815348], [4.8388927, 45.7818152], [4.8385883, 45.7820262], [4.8381036, 45.7824856], [4.8380375, 45.7825222], [4.8378059, 45.782616], [4.8376318, 45.7826787], [4.8375239, 45.7827028], [4.8374461, 45.7827107], [4.8371043, 45.7826812], [4.8369982, 45.7826505], [4.8368693, 45.7826028], [4.8362184, 45.7822615], [4.8357629, 45.7820644], [4.8353431, 45.7819108], [4.8331414, 45.7817576], [4.8327158, 45.7816701], [4.8327262, 45.7818328], [4.8311595, 45.7820966], [4.8312254, 45.7826067], [4.8316858, 45.7825222], [4.8317428, 45.7829324], [4.8317122, 45.7829403], [4.8302797, 45.7831743], [4.8302568, 45.7831562], [4.8302153, 45.7831839], [4.8292836, 45.7824982], [4.8293165, 45.7829007], [4.8289121, 45.782986], [4.8281056, 45.7831761], [4.8275907, 45.7832649], [4.826279, 45.7836591], [4.8254713, 45.7838564], [4.8252464, 45.7839026], [4.8238559, 45.7842511], [4.8236631, 45.7843234], [4.8235942, 45.7843982], [4.8232752, 45.7853623], [4.8230504, 45.7860624], [4.8229907, 45.7862751], [4.8225508, 45.7861962], [4.8220587, 45.78617], [4.8215535, 45.7869299], [4.8216682, 45.7870202], [4.8219421, 45.787144], [4.8225089, 45.7873883], [4.8225163, 45.7874222], [4.8225115, 45.787479], [4.822446, 45.7877589], [4.8223408, 45.7877458], [4.820148, 45.7890466], [4.819893, 45.7891994], [4.8189187, 45.7897261], [4.8185636, 45.7894361], [4.8173615, 45.7885396], [4.8169689, 45.7882368], [4.8165923, 45.7879275], [4.8162359, 45.7876074], [4.8159084, 45.7872753], [4.8157001, 45.7870365], [4.8155048, 45.7867913], [4.8153196, 45.7865417], [4.8146191, 45.7855227], [4.8144398, 45.7852709], [4.8130653, 45.7835892], [4.8114535, 45.7817715], [4.8108804, 45.780992], [4.8104188, 45.7801999], [4.809786, 45.7791742], [4.8092683, 45.7783142], [4.809026, 45.7767261]]]}}, {"type": "Feature", "properties": {"nom": "Lyon 5e", "arrondissement": 5}, "geometry": {"type": "Polygon", "coordinates": [[[4.7718132, 45.7510347], [4.7719471, 45.7508581], [4.7721863, 45.7508304], [4.7729118, 45.7507134], [4.7729663, 45.7502748], [4.7730436, 45.7501278], [4.7732292, 45.7499999], [4.7741962, 45.749424], [4.7743897, 45.7492691], [4.7746418, 45.7489795], [4.7755992, 45.7481157], [4.7775222, 45.7472216], [4.7776168, 45.7471857], [4.7778603, 45.7471775], [4.7787914, 45.7475574], [4.7803545, 45.746401], [4.780399, 45.7463321], [4.7809611, 45.7459431], [4.7817127, 45.7456047], [4.7819785, 45.7454515], [4.7825036, 45.7451249], [4.7829667, 45.7447137], [4.7835875, 45.7442456], [4.7839675, 45.7444256], [4.7842541, 45.7445624], [4.784573, 45.7446957], [4.7854138, 45.7450874], [4.7866974, 45.7457352], [4.7880411, 45.7463584], [4.7881332, 45.7463617], [4.7892356, 45.7468589], [4.7897425, 45.7470806], [4.7908854, 45.7475565], [4.7910132, 45.7476413], [4.7924313, 45.7482751], [4.7925085, 45.7482736], [4.7943219, 45.7491242], [4.7954697, 45.7495172], [4.7970216, 45.7500487], [4.7975824, 45.75019], [4.7981434, 45.7502396], [4.7986754, 45.7502733], [4.7989914, 45.7503412], [4.7992828, 45.7504108], [4.7994991, 45.7504793], [4.7995775, 45.7505042], [4.800292, 45.75082], [4.8004315, 45.7509065], [4.8009672, 45.751161], [4.8011592, 45.751243], [4.801297, 45.7513063], [4.8024316, 45.7517608], [4.802533, 45.7516704], [4.8061911, 45.7504492], [4.8066142, 45.7503079], [4.8066483, 45.7502787], [4.8067121, 45.7502241], [4.8072932, 45.7500645], [4.8073315, 45.7500571], [4.8074259, 45.7500367], [4.8104425, 45.7490542], [4.810215, 45.7487715], [4.809533, 45.7481066], [4.8100849, 45.7479375], [4.8101022, 45.7479429], [4.8108975, 45.7476689], [4.8111088, 45.7475961], [4.8114547, 45.7481557], [4.8115272, 45.7481421], [4.8116915, 45.7481926], [4.8120797, 45.7484833], [4.8134031, 45.7480039], [4.8135616, 45.7482333], [4.8142861, 45.7488093], [4.814339, 45.748871], [4.8144773, 45.7493061], [4.8146122, 45.7495748], [4.8146261, 45.7496506], [4.816446, 45.7496503], [4.8167903, 45.7496502], [4.8172507, 45.7495217], [4.818333, 45.7490757], [4.8186526, 45.7492775], [4.8189801, 45.7494641], [4.8193302, 45.7496475], [4.8196829, 45.7498262], [4.8207537, 45.7503508], [4.8211152, 45.7505341], [4.82125, 45.75061], [4.8224359, 45.7512796], [4.8224992, 45.7513663], [4.8225485, 45.7514338], [4.822567, 45.7514592], [4.8225789, 45.7514754], [4.8239507, 45.7531633], [4.825645, 45.7564629], [4.8262945, 45.7570808], [4.82657, 45.7574005], [4.8268579, 45.7576848], [4.8271665, 45.7579626], [4.8278069, 45.7585124], [4.8281134, 45.7587943], [4.828395, 45.7590823], [4.8286411, 45.7593876], [4.8294397, 45.7604286], [4.8299215, 45.7608091], [4.8306544, 45.7629345], [4.8306188, 45.7645928], [4.829837, 45.7661764], [4.8294062, 45.7667052], [4.828003, 45.7674941], [4.8259897, 45.7680006], [4.8232567, 45.7678655], [4.822032, 45.7676987], [4.8196056, 45.7671873], [4.8198111, 45.7663199], [4.8199821, 45.7655684], [4.8198286, 45.7654169], [4.8198904, 45.7650243], [4.8198751, 45.7649605], [4.8189981, 45.7651216], [4.8187121, 45.7651618], [4.8184318, 45.7651848], [4.81791, 45.7652403], [4.8178334, 45.7652562], [4.8174273, 45.7654086], [4.8171375, 45.7655855], [4.8168818, 45.7657232], [4.816798, 45.7657436], [4.8155666, 45.7659138], [4.8154669, 45.765908], [4.8153151, 45.7658865], [4.8152287, 45.7658626], [4.8150344, 45.7657804], [4.8149345, 45.764503], [4.8148669, 45.7643111], [4.814877, 45.7642802], [4.8148519, 45.7642102], [4.8148031, 45.7641773], [4.8144279, 45.7640381], [4.8133845, 45.7639643], [4.8132663, 45.7637294], [4.8131531, 45.7637561], [4.8129874, 45.7638567], [4.8129096, 45.7639215], [4.812672, 45.7642223], [4.8119851, 45.764719], [4.8118675, 45.7647613], [4.8108505, 45.7647575], [4.8099084, 45.7645378], [4.809384, 45.7643155], [4.8096468, 45.7636546], [4.8099228, 45.7627384], [4.8101378, 45.7624468], [4.810202, 45.7621309], [4.8101885, 45.7616551], [4.8103288, 45.7613401], [4.8104259, 45.7610253], [4.8104735, 45.7608357], [4.8105346, 45.7605022], [4.8102707, 45.7602875], [4.8105828, 45.7600469], [4.8107399, 45.7599128], [4.8107325, 45.7598885], [4.8107856, 45.7598756], [4.8116557, 45.7592027], [4.8117299, 45.7591428], [4.8123063, 45.7586716], [4.8116418, 45.758714], [4.810127, 45.758839], [4.8089747, 45.7591858], [4.8089698, 45.7591975], [4.8089607, 45.7591896], [4.8083598, 45.7593722], [4.8083481, 45.7593841], [4.8083349, 45.7593785], [4.8074271, 45.7596495], [4.806208, 45.7600705], [4.8061043, 45.7601008], [4.8060019, 45.760114], [4.8056712, 45.7601368], [4.8054794, 45.7601704], [4.805295, 45.7602214], [4.8050434, 45.7603134], [4.8047984, 45.7604385], [4.8046873, 45.7605068], [4.8045301, 45.7606382], [4.8044323, 45.7607237], [4.8043636, 45.7607938], [4.8043073, 45.7608921], [4.8038344, 45.7612788], [4.80276, 45.7619822], [4.8026298, 45.7621599], [4.802482, 45.76238], [4.802195, 45.762622], [4.8016644, 45.7629355], [4.8012592, 45.7631328], [4.8001975, 45.763485], [4.7998924, 45.7635634], [4.7997075, 45.7635965], [4.799419, 45.7636224], [4.7988181, 45.7636283], [4.7981293, 45.7636618], [4.7961159, 45.7635648], [4.794661, 45.7637587], [4.7933017, 45.7639205], [4.7922525, 45.7640346], [4.791784, 45.7640691], [4.7911057, 45.764093], [4.7896251, 45.7641027], [4.7890794, 45.7641137], [4.7878091, 45.7641464], [4.7877459, 45.764157], [4.7870066, 45.7641671], [4.7868092, 45.7641616], [4.7864031, 45.7623582], [4.7858639, 45.7608718], [4.7853221, 45.7590186], [4.7852541, 45.7588803], [4.7852128, 45.7588183], [4.785143, 45.7587695], [4.7849728, 45.7586864], [4.7841595, 45.7584117], [4.7839213, 45.758301], [4.7837308, 45.758134], [4.7834305, 45.7578611], [4.7823315, 45.7568907], [4.7821206, 45.7566762], [4.7821142, 45.7544384], [4.7803763, 45.7545682], [4.7800446, 45.754567], [4.7793075, 45.7544658], [4.7776975, 45.7542071], [4.7766612, 45.7539617], [4.7758986, 45.753767], [4.7753181, 45.7535899], [4.7743948, 45.753296], [4.773674, 45.7530902], [4.7731776, 45.7530526], [4.7730881, 45.7529189], [4.7724543, 45.7520029], [4.7718132, 45.7510347]]]}}, {"type": "Feature", "properties": {"nom": "Lyon 6e", "arrondissement": 6}, "geometry": {"type": "Polygon", "coordinates": [[[4.8394484, 45.7723422], [4.8397011, 45.7686244], [4.8397045, 45.7675289], [4.839716, 45.7662799], [4.8397917, 45.765585], [4.8398042, 45.7635554], [4.8410948, 45.7635759], [4.8414228, 45.7635801], [4.84182, 45.7635823], [4.843886, 45.7635939], [4.8514744, 45.7636343], [4.8525049, 45.7636407], [4.853498, 45.7636507], [4.8552403, 45.7636643], [4.8562733, 45.7636646], [4.8573161, 45.7636736], [4.8579985, 45.7636859], [4.8583875, 45.763687], [4.8596526, 45.7636902], [4.8606961, 45.763696], [4.8609671, 45.7636969], [4.861302, 45.7636989], [4.8620463, 45.7637106], [4.8628614, 45.7637031], [4.8637994, 45.7637101], [4.8648546, 45.7637164], [4.8658708, 45.7637227], [4.8670339, 45.7637299], [4.8679317, 45.7637301], [4.8699442, 45.763731], [4.8688733, 45.7651714], [4.8688335, 45.7652248], [4.8678063, 45.7664896], [4.8669331, 45.7668527], [4.8664376, 45.7670591], [4.866356, 45.7671017], [4.8662146, 45.7671913], [4.8660868, 45.7672768], [4.8658832, 45.7674239], [4.8657651, 45.7675138], [4.8657318, 45.7675386], [4.8653693, 45.7677832], [4.865414, 45.7681975], [4.8647895, 45.7684167], [4.8639213, 45.768711], [4.863921, 45.7687168], [4.8638775, 45.7687188], [4.8637666, 45.7687775], [4.8636221, 45.768867], [4.86336, 45.7690689], [4.8632583, 45.7691758], [4.8631907, 45.7692399], [4.862493, 45.7699655], [4.8624313, 45.7700375], [4.8622731, 45.7702303], [4.8621239, 45.7704535], [4.8620252, 45.7705846], [4.8620072, 45.7705975], [4.8619573, 45.7706662], [4.861965, 45.7706771], [4.8611517, 45.7718294], [4.861115, 45.7718742], [4.8607643, 45.7719202], [4.86034, 45.7719787], [4.8583627, 45.772431], [4.8583702, 45.7726973], [4.8583994, 45.7730402], [4.8585655, 45.7750134], [4.8586985, 45.7778373], [4.8589665, 45.7803143], [4.8596462, 45.7856067], [4.8596514, 45.7856468], [4.8598286, 45.7870264], [4.8567758, 45.7871289], [4.8563831, 45.7871481], [4.855755, 45.7871456], [4.8553271, 45.7871387], [4.8539523, 45.7869571], [4.8528412, 45.7866437], [4.8512448, 45.7860349], [4.8495629, 45.7852299], [4.8480466, 45.7843718], [4.8472116, 45.7837108], [4.8456884, 45.7822783], [4.8446896, 45.781161], [4.8443295, 45.7807307], [4.8440105, 45.7803284], [4.8437109, 45.7799009], [4.8430325, 45.778919], [4.8427457, 45.7782838], [4.8397727, 45.7734775], [4.839488, 45.7725792], [4.8394484, 45.7723422]]]}}, {"type": "Feature", "properties": {"nom": "Lyon 7e", "arrondissement": 7}, "geometry": {"type": "Polygon", "coordinates": [[[4.8186823, 45.7265957], [4.820253, 45.7204878], [4.8209416, 45.719069], [4.822373, 45.7160962], [4.8224714, 45.7159197], [4.8233885, 45.7146968], [4.8237962, 45.7143076], [4.8246707, 45.7134459], [4.825511, 45.712842], [4.8264132, 45.7123403], [4.8280087, 45.7116093], [4.8296837, 45.7110204], [4.8298167, 45.7109736], [4.8330494, 45.7099968], [4.8344088, 45.7093219], [4.8357161, 45.7085797], [4.8376822, 45.7073666], [4.8404878, 45.7079597], [4.8381021, 45.7136313], [4.8374498, 45.718613], [4.848812, 45.718789], [4.8485811, 45.7192605], [4.8484848, 45.7195596], [4.8484459, 45.7196976], [4.8483738, 45.720025], [4.8483433, 45.7202484], [4.848333, 45.7204891], [4.8483355, 45.7209305], [4.8483748, 45.7213883], [4.8484428, 45.7219559], [4.8484755, 45.722506], [4.8484758, 45.7226956], [4.8484494, 45.722919], [4.8484018, 45.7231783], [4.84835, 45.7234144], [4.8478831, 45.7252734], [4.8477673, 45.7257844], [4.8477062, 45.7261432], [4.8476568, 45.7265393], [4.8476443, 45.7267488], [4.8476322, 45.7269703], [4.8476327, 45.727158], [4.8476437, 45.7273525], [4.8476718, 45.727579], [4.8477153, 45.7278204], [4.8477869, 45.7281012], [4.8480207, 45.7288592], [4.8481095, 45.7291703], [4.8482664, 45.7294563], [4.8483387, 45.7295882], [4.8485182, 45.7298909], [4.8488001, 45.7303571], [4.848876, 45.7304876], [4.8489451, 45.7306189], [4.8491923, 45.7311453], [4.849252, 45.7313247], [4.849308, 45.7315874], [4.8493394, 45.7317777], [4.8493652, 45.7319781], [4.8494369, 45.7326956], [4.8494817, 45.7330439], [4.8496346, 45.7345042], [4.8496723, 45.7348521], [4.8496634, 45.7351114], [4.8496482, 45.7352086], [4.8496234, 45.7352951], [4.849505, 45.7355976], [4.8493948, 45.735842], [4.8490288, 45.7366773], [4.8489491, 45.7369308], [4.848936, 45.7370253], [4.848906, 45.7370589], [4.8489023, 45.7372855], [4.8490174, 45.737697], [4.8490423, 45.7377215], [4.8494659, 45.7382242], [4.8496609, 45.7383691], [4.8499664, 45.7385504], [4.850369, 45.7387272], [4.8509276, 45.738906], [4.8512691, 45.7389916], [4.8518326, 45.7391309], [4.8519226, 45.7391931], [4.854145, 45.7397495], [4.8548766, 45.7399617], [4.85514, 45.7400467], [4.8552812, 45.7401007], [4.8554478, 45.7401745], [4.8556166, 45.7402594], [4.8561342, 45.7405508], [4.8562264, 45.7406071], [4.8564349, 45.7407346], [4.8564437, 45.7407691], [4.8566812, 45.740978], [4.8569915, 45.7412479], [4.8571383, 45.7413901], [4.8572361, 45.7414925], [4.8574112, 45.7416949], [4.8575139, 45.7418195], [4.8576175, 45.7419581], [4.8577068, 45.7421041], [4.8577665, 45.7422349], [4.8578268, 45.7424481], [4.8579013, 45.7426279], [4.8581352, 45.7431837], [4.8586768, 45.7451206], [4.8592244, 45.7470792], [4.8592375, 45.7471092], [4.8593336, 45.7472185], [4.8593465, 45.7472327], [4.8593474, 45.7472343], [4.8599438, 45.7494327], [4.859956, 45.7494375], [4.8599511, 45.7494457], [4.8583311, 45.7500136], [4.8575783, 45.750274], [4.8575607, 45.7502503], [4.8572195, 45.7503668], [4.8571604, 45.750387], [4.8569612, 45.7504514], [4.8565071, 45.7506114], [4.8558146, 45.7508627], [4.8557608, 45.7508822], [4.8554849, 45.750982], [4.8553165, 45.7510428], [4.8551894, 45.7510888], [4.8542008, 45.7514272], [4.8540164, 45.7514819], [4.854008, 45.7514849], [4.8537872, 45.7515597], [4.8537202, 45.7515862], [4.853657, 45.7516068], [4.8536548, 45.7516074], [4.8535478, 45.7516433], [4.8534575, 45.7516745], [4.8532829, 45.7517328], [4.8530573, 45.7518094], [4.8530299, 45.7518187], [4.8529594, 45.7518484], [4.8528563, 45.7518772], [4.8528163, 45.7518908], [4.8527263, 45.751918], [4.8523403, 45.7520525], [4.8522377, 45.7520873], [4.851092, 45.752502], [4.8509855, 45.7525403], [4.8508475, 45.7525851], [4.850736, 45.7526268], [4.8506979, 45.7526378], [4.8503431, 45.7527626], [4.850111, 45.7528405], [4.8498989, 45.7529117], [4.8498948, 45.7529131], [4.849796, 45.7529329], [4.8492968, 45.7531097], [4.8490234, 45.7532013], [4.8469929, 45.7539082], [4.8467998, 45.7539734], [4.8464653, 45.7540893], [4.8463708, 45.7541217], [4.8462352, 45.7541682], [4.846117, 45.7542105], [4.8455045, 45.7544296], [4.8437642, 45.7550075], [4.8429679, 45.7552969], [4.8429033, 45.7553191], [4.8401941, 45.756247], [4.8397009, 45.7564133], [4.8384204, 45.7567779], [4.8383556, 45.7567897], [4.8382792, 45.7566656], [4.8354029, 45.7526353], [4.8353506, 45.75249], [4.8336655, 45.7504174], [4.8322622, 45.7484169], [4.8321038, 45.748174], [4.8305844, 45.7465999], [4.8305257, 45.7465164], [4.8304567, 45.746415], [4.8288871, 45.7450638], [4.8251734, 45.740727], [4.8208675, 45.7346438], [4.820581, 45.7334528], [4.8199193, 45.7315822], [4.819652, 45.7306517], [4.8192477, 45.7290652], [4.8190814, 45.728383], [4.818813, 45.7272319], [4.8186823, 45.7265957]]]}}, {"type": "Feature", "properties": {"nom": "Lyon 8e", "arrondissement": 8}, "geometry": {"type": "Polygon", "coordinates": [[[4.8476322, 45.7269703], [4.8476443, 45.7267488], [4.8476568, 45.7265393], [4.8477062, 45.7261432], [4.8477673, 45.7257844], [4.8478831, 45.7252734], [4.84835, 45.7234144], [4.8484018, 45.7231783], [4.8484494, 45.722919], [4.8484758, 45.7226956], [4.8484755, 45.722506], [4.8484428, 45.7219559], [4.8483748, 45.7213883], [4.8483355, 45.7209305], [4.848333, 45.7204891], [4.8483433, 45.7202484], [4.8483738, 45.720025], [4.8484459, 45.7196976], [4.8484848, 45.7195596], [4.8485811, 45.7192605], [4.848812, 45.718789], [4.849741, 45.7187965], [4.8543608, 45.7189082], [4.8544946, 45.7189114], [4.8544806, 45.7190281], [4.8544791, 45.7190403], [4.8544583, 45.7192123], [4.8544134, 45.7194449], [4.8543422, 45.7202191], [4.8542485, 45.7212449], [4.8542272, 45.7214727], [4.8542193, 45.7215547], [4.8542071, 45.7216737], [4.8541905, 45.7219011], [4.8540897, 45.7233992], [4.8540821, 45.7235279], [4.8540491, 45.7240151], [4.8540082, 45.7246552], [4.8539885, 45.7248405], [4.8539799, 45.7249873], [4.8538256, 45.7273791], [4.8537642, 45.7282324], [4.853738, 45.7290601], [4.853718, 45.7294143], [4.8536966, 45.7297389], [4.8540869, 45.7297775], [4.8549201, 45.7298697], [4.8557193, 45.7300139], [4.8580567, 45.7304573], [4.8586489, 45.730543], [4.8591703, 45.7306128], [4.8595226, 45.7306632], [4.8596687, 45.7306868], [4.8597132, 45.7306939], [4.8597556, 45.7307], [4.8599312, 45.7307286], [4.8599538, 45.7306707], [4.8599634, 45.7306474], [4.8600344, 45.7304659], [4.8600923, 45.73032], [4.8601405, 45.7302364], [4.8607406, 45.7293382], [4.860773, 45.7292742], [4.8608925, 45.7291], [4.8609436, 45.72903], [4.8616884, 45.7278161], [4.861935, 45.727493], [4.8620157, 45.7273685], [4.8623579, 45.7269147], [4.8626047, 45.7268482], [4.8704276, 45.7246532], [4.8716274, 45.724317], [4.8726667, 45.7240258], [4.8731053, 45.7239028], [4.880842, 45.7217346], [4.8810169, 45.721888], [4.8812603, 45.7219168], [4.8832669, 45.7217996], [4.8855477, 45.7213484], [4.8860552, 45.7214906], [4.8875539, 45.7203573], [4.887489, 45.7205815], [4.8874458, 45.7209], [4.8873431, 45.7218196], [4.8872939, 45.7226671], [4.8872741, 45.7234137], [4.8870076, 45.7261248], [4.886999, 45.7263955], [4.8869199, 45.7271793], [4.8868468, 45.7279623], [4.8867787, 45.7286792], [4.8867508, 45.7290263], [4.8867336, 45.7293151], [4.886763, 45.7294895], [4.8868643, 45.7297512], [4.8871116, 45.7300368], [4.8872957, 45.7302349], [4.8877979, 45.7307754], [4.8880217, 45.7312382], [4.8884229, 45.7325019], [4.8886604, 45.7330801], [4.8889422, 45.7336373], [4.8897089, 45.7350869], [4.8898421, 45.7352683], [4.8919333, 45.7387141], [4.8921378, 45.739017], [4.8918727, 45.739123], [4.8858282, 45.7411148], [4.8830498, 45.741993], [4.8804752, 45.7423958], [4.8800315, 45.7425107], [4.8799987, 45.7423933], [4.8781313, 45.7427093], [4.8784108, 45.7430805], [4.8781865, 45.7431622], [4.8778101, 45.743288], [4.8777166, 45.7433192], [4.8775184, 45.7433853], [4.877192, 45.7434989], [4.8769881, 45.7435671], [4.8768568, 45.7436151], [4.8764571, 45.7437524], [4.8760106, 45.7439059], [4.8758362, 45.7439658], [4.875811, 45.7439745], [4.8757054, 45.7440108], [4.8755494, 45.7440644], [4.8752162, 45.744179], [4.8750669, 45.7442303], [4.875049, 45.7442364], [4.8745655, 45.7444026], [4.8744622, 45.7444388], [4.873332, 45.7448347], [4.8732228, 45.7448729], [4.8720989, 45.7452566], [4.8720475, 45.7452742], [4.8720355, 45.7452786], [4.8719844, 45.7452961], [4.8718281, 45.7453512], [4.8715121, 45.7454626], [4.8714895, 45.7454703], [4.8714192, 45.7454954], [4.8712409, 45.7455588], [4.8697398, 45.7460742], [4.8696813, 45.7460938], [4.8681993, 45.7466017], [4.8681383, 45.7466235], [4.868043, 45.7466571], [4.8672279, 45.7469447], [4.8672114, 45.7469505], [4.8671314, 45.7469788], [4.8667008, 45.7471238], [4.8666025, 45.7471569], [4.8660105, 45.7473562], [4.8653424, 45.7475812], [4.8653009, 45.7475952], [4.8652133, 45.7476254], [4.8642718, 45.74795], [4.864213, 45.7479703], [4.8636393, 45.7481683], [4.8635068, 45.7482154], [4.8629354, 45.7484122], [4.8626683, 45.7485047], [4.862575, 45.7485368], [4.8620806, 45.7487071], [4.8618213, 45.7487964], [4.8617968, 45.7488049], [4.8617605, 45.7488172], [4.8616329, 45.7488613], [4.8610687, 45.7490577], [4.8604385, 45.7492688], [4.8603054, 45.7493153], [4.8599649, 45.7494402], [4.859956, 45.7494375], [4.8599438, 45.7494327], [4.8593474, 45.7472343], [4.8593465, 45.7472327], [4.8593336, 45.7472185], [4.8592375, 45.7471092], [4.8592244, 45.7470792], [4.8586768, 45.7451206], [4.8581352, 45.7431837], [4.8579013, 45.7426279], [4.8578268, 45.7424481], [4.8577665, 45.7422349], [4.8577068, 45.7421041], [4.8576175, 45.7419581], [4.8575139, 45.7418195], [4.8574112, 45.7416949], [4.8572361, 45.7414925], [4.8571383, 45.7413901], [4.8569915, 45.7412479], [4.8566812, 45.740978], [4.8564437, 45.7407691], [4.8564349, 45.7407346], [4.8562264, 45.7406071], [4.8561342, 45.7405508], [4.8556166, 45.7402594], [4.8554478, 45.7401745], [4.8552812, 45.7401007], [4.85514, 45.7400467], [4.8548766, 45.7399617], [4.854145, 45.7397495], [4.8519226, 45.7391931], [4.8518326, 45.7391309], [4.8512691, 45.7389916], [4.8509276, 45.738906], [4.850369, 45.7387272], [4.8499664, 45.7385504], [4.8496609, 45.7383691], [4.8494659, 45.7382242], [4.8490423, 45.7377215], [4.8490174, 45.737697], [4.8489023, 45.7372855], [4.848906, 45.7370589], [4.848936, 45.7370253], [4.8489491, 45.7369308], [4.8490288, 45.7366773], [4.8493948, 45.735842], [4.849505, 45.7355976], [4.8496234, 45.7352951], [4.8496482, 45.7352086], [4.8496634, 45.7351114], [4.8496723, 45.7348521], [4.8496346, 45.7345042], [4.8494817, 45.7330439], [4.8494369, 45.7326956], [4.8493652, 45.7319781], [4.8493394, 45.7317777], [4.849308, 45.7315874], [4.849252, 45.7313247], [4.8491923, 45.7311453], [4.8489451, 45.7306189], [4.848876, 45.7304876], [4.8488001, 45.7303571], [4.8485182, 45.7298909], [4.8483387, 45.7295882], [4.8482664, 45.7294563], [4.8481095, 45.7291703], [4.8480207, 45.7288592], [4.8477869, 45.7281012], [4.8477153, 45.7278204], [4.8476718, 45.727579], [4.8476437, 45.7273525], [4.8476327, 45.727158], [4.8476322, 45.7269703]]]}}, {"type": "Feature", "properties": {"nom": "Lyon 9e", "arrondissement": 9}, "geometry": {"type": "Polygon", "coordinates": [[[4.783995, 45.7877821], [4.7840888, 45.7876746], [4.7840617, 45.7875205], [4.7842116, 45.7873434], [4.7843275, 45.7873309], [4.7851321, 45.7873883], [4.7854302, 45.7872398], [4.7856529, 45.7870568], [4.785763, 45.7865664], [4.7855237, 45.7860575], [4.7857527, 45.7858501], [4.7868846, 45.7860131], [4.7884409, 45.7861838], [4.7900507, 45.7862344], [4.7904901, 45.786334], [4.7905808, 45.7863545], [4.7919014, 45.7865707], [4.7921055, 45.7866628], [4.7920877, 45.7865813], [4.7920727, 45.7865382], [4.7919977, 45.7863358], [4.7919074, 45.786041], [4.7918193, 45.7857471], [4.7918371, 45.7857436], [4.7918699, 45.7857088], [4.7918405, 45.7855851], [4.7918468, 45.7855723], [4.7919869, 45.7855743], [4.7920335, 45.7855681], [4.7920525, 45.7855536], [4.792064, 45.7855337], [4.7921119, 45.7854284], [4.7921222, 45.7853191], [4.7921655, 45.7852434], [4.7921694, 45.7852062], [4.7920725, 45.785057], [4.7920332, 45.784783], [4.7919618, 45.7845037], [4.7917381, 45.7840499], [4.7915875, 45.7838472], [4.7915122, 45.7837681], [4.7914057, 45.7836437], [4.7913743, 45.7836089], [4.7913179, 45.7834204], [4.7913214, 45.7834124], [4.7912056, 45.7828426], [4.7911187, 45.7826156], [4.7910754, 45.7825241], [4.7909465, 45.7824048], [4.7909022, 45.782251], [4.7909151, 45.782167], [4.7909967, 45.78194], [4.791112, 45.7817848], [4.7911638, 45.7816479], [4.791119, 45.7815008], [4.7911528, 45.7814507], [4.7912006, 45.7814145], [4.7912264, 45.7813541], [4.7912778, 45.7813105], [4.7912937, 45.7812555], [4.791329, 45.7811978], [4.791347, 45.7811353], [4.791448, 45.7810771], [4.7915116, 45.7810771], [4.7917134, 45.781008], [4.7918413, 45.780985], [4.7919745, 45.7808296], [4.7919817, 45.7808212], [4.7918583, 45.7808196], [4.7918077, 45.780788], [4.791888, 45.7803727], [4.7920112, 45.7797022], [4.7921254, 45.7794897], [4.7920863, 45.7794663], [4.7920176, 45.779425], [4.7920033, 45.7792642], [4.7921675, 45.7792464], [4.7922133, 45.7792253], [4.7924685, 45.7790598], [4.7924868, 45.7790406], [4.7925791, 45.7789382], [4.7926678, 45.7788843], [4.7929048, 45.7788261], [4.7931504, 45.7785791], [4.7931596, 45.7784099], [4.7931494, 45.7783908], [4.7931498, 45.7783724], [4.7931544, 45.7783557], [4.7931683, 45.7783254], [4.7931723, 45.7783147], [4.7930318, 45.778196], [4.7931571, 45.7780548], [4.7931776, 45.7780449], [4.7931865, 45.7780344], [4.7931904, 45.7780236], [4.7932214, 45.777963], [4.7932345, 45.777942], [4.7932442, 45.7779265], [4.7933737, 45.7777991], [4.7936225, 45.7776316], [4.7936768, 45.7775059], [4.7937854, 45.7775066], [4.793817, 45.7775017], [4.7938619, 45.7774867], [4.7939298, 45.7774526], [4.7940783, 45.777423], [4.794438, 45.7773555], [4.794503, 45.777374], [4.7945323, 45.7773781], [4.7945588, 45.7773744], [4.7945918, 45.7773555], [4.7946527, 45.7773143], [4.794713, 45.7773009], [4.794907, 45.7766972], [4.7951028, 45.7759785], [4.7950838, 45.7759031], [4.7951527, 45.7758015], [4.7947874, 45.7755007], [4.7941176, 45.7749067], [4.7925921, 45.7736014], [4.792486, 45.7735112], [4.7926381, 45.7734343], [4.7926211, 45.7733281], [4.7925898, 45.7730582], [4.7925687, 45.7727163], [4.7925301, 45.7726445], [4.7922666, 45.7723386], [4.7915888, 45.7718182], [4.7912002, 45.7714369], [4.791109, 45.7712637], [4.7910835, 45.7711706], [4.7910348, 45.7706897], [4.7909914, 45.7705081], [4.7908871, 45.7697834], [4.7908523, 45.7690976], [4.7908135, 45.7686874], [4.7908182, 45.7685799], [4.7905916, 45.7678958], [4.7893113, 45.7668407], [4.7888538, 45.766143], [4.7887485, 45.7660682], [4.7880616, 45.7660944], [4.7868961, 45.7656306], [4.7870811, 45.7653879], [4.7869534, 45.7647911], [4.7869596, 45.7643153], [4.7868408, 45.7643137], [4.7868092, 45.7641616], [4.7870066, 45.7641671], [4.7877459, 45.764157], [4.7878091, 45.7641464], [4.7890794, 45.7641137], [4.7896251, 45.7641027], [4.7911057, 45.764093], [4.791784, 45.7640691], [4.7922525, 45.7640346], [4.7933017, 45.7639205], [4.794661, 45.7637587], [4.7961159, 45.7635648], [4.7981293, 45.7636618], [4.7988181, 45.7636283], [4.799419, 45.7636224], [4.7997075, 45.7635965], [4.7998924, 45.7635634], [4.8001975, 45.763485], [4.8012592, 45.7631328], [4.8016644, 45.7629355], [4.802195, 45.762622], [4.802482, 45.76238], [4.8026298, 45.7621599], [4.80276, 45.7619822], [4.8038344, 45.7612788], [4.8043073, 45.7608921], [4.8043636, 45.7607938], [4.8044323, 45.7607237], [4.8045301, 45.7606382], [4.8046873, 45.7605068], [4.8047984, 45.7604385], [4.8050434, 45.7603134], [4.805295, 45.7602214], [4.8054794, 45.7601704], [4.8056712, 45.7601368], [4.8060019, 45.760114], [4.8061043, 45.7601008], [4.806208, 45.7600705], [4.8074271, 45.7596495], [4.8083349, 45.7593785], [4.8083481, 45.7593841], [4.8083598, 45.7593722], [4.8089607, 45.7591896], [4.8089698, 45.7591975], [4.8089747, 45.7591858], [4.810127, 45.758839], [4.8116418, 45.758714], [4.8123063, 45.7586716], [4.8117299, 45.7591428], [4.8116557, 45.7592027], [4.8107856, 45.7598756], [4.8107325, 45.7598885], [4.8107399, 45.7599128], [4.8105828, 45.7600469], [4.8102707, 45.7602875], [4.8105346, 45.7605022], [4.8104735, 45.7608357], [4.8104259, 45.7610253], [4.8103288, 45.7613401], [4.8101885, 45.7616551], [4.810202, 45.7621309], [4.8101378, 45.7624468], [4.8099228, 45.7627384], [4.8096468, 45.7636546], [4.809384, 45.7643155], [4.8099084, 45.7645378], [4.8108505, 45.7647575], [4.8118675, 45.7647613], [4.8119851, 45.764719], [4.812672, 45.7642223], [4.8129096, 45.7639215], [4.8129874, 45.7638567], [4.8131531, 45.7637561], [4.8132663, 45.7637294], [4.8133845, 45.7639643], [4.8144279, 45.7640381], [4.8148031, 45.7641773], [4.8148519, 45.7642102], [4.814877, 45.7642802], [4.8148669, 45.7643111], [4.8149345, 45.764503], [4.8150344, 45.7657804], [4.8152287, 45.7658626], [4.8153151, 45.7658865], [4.8154669, 45.765908], [4.8155666, 45.7659138], [4.816798, 45.7657436], [4.8168818, 45.7657232], [4.8171375, 45.7655855], [4.8174273, 45.7654086], [4.8178334, 45.7652562], [4.81791, 45.7652403], [4.8184318, 45.7651848], [4.8187121, 45.7651618], [4.8189981, 45.7651216], [4.8198751, 45.7649605], [4.8198904, 45.7650243], [4.8198286, 45.7654169], [4.8199821, 45.7655684], [4.8198111, 45.7663199], [4.8196056, 45.7671873], [4.8193049, 45.7671958], [4.8184095, 45.7672084], [4.8181122, 45.767216], [4.8178166, 45.7672308], [4.817526, 45.7672568], [4.8172389, 45.7672951], [4.8168807, 45.7673566], [4.816514, 45.7674276], [4.8161449, 45.7675111], [4.8157838, 45.7676077], [4.8154366, 45.7677185], [4.8151107, 45.7678443], [4.8148122, 45.7679881], [4.8145513, 45.7681506], [4.8143342, 45.7683369], [4.8141551, 45.7685482], [4.8140064, 45.7687794], [4.813942, 45.7690521], [4.8131867, 45.7711446], [4.8120614, 45.7725845], [4.8103906, 45.7739043], [4.809487, 45.7749823], [4.8092548, 45.7757846], [4.809026, 45.7767261], [4.8092683, 45.7783142], [4.809786, 45.7791742], [4.8104188, 45.7801999], [4.8108804, 45.780992], [4.8114535, 45.7817715], [4.8130653, 45.7835892], [4.8144398, 45.7852709], [4.8146191, 45.7855227], [4.8153196, 45.7865417], [4.8155048, 45.7867913], [4.8157001, 45.7870365], [4.8159084, 45.7872753], [4.8162359, 45.7876074], [4.8165923, 45.7879275], [4.8169689, 45.7882368], [4.8173615, 45.7885396], [4.8185636, 45.7894361], [4.8189187, 45.7897261], [4.8200246, 45.7906729], [4.820202, 45.7908061], [4.8206801, 45.7911627], [4.8211677, 45.7914996], [4.8216291, 45.7918174], [4.8220652, 45.7921151], [4.8225898, 45.7924721], [4.8229351, 45.7926965], [4.8231369, 45.7928198], [4.8238525, 45.7932499], [4.8256918, 45.7942572], [4.8266935, 45.7948607], [4.827251, 45.7951826], [4.8278596, 45.7955294], [4.8285618, 45.7959176], [4.8291918, 45.7962139], [4.8297041, 45.796263], [4.8301748, 45.7963092], [4.8306466, 45.7963545], [4.8311971, 45.7964261], [4.8314609, 45.7964605], [4.8315568, 45.796478], [4.8325613, 45.7966868], [4.8330308, 45.7967729], [4.8335113, 45.7968539], [4.8341112, 45.7970804], [4.8347145, 45.7973064], [4.8354193, 45.7974227], [4.8357513, 45.7975949], [4.8366337, 45.7980527], [4.8369779, 45.7982417], [4.8371178, 45.7983353], [4.8373634, 45.7986083], [4.8375706, 45.7989057], [4.8378747, 45.7993103], [4.8379982, 45.7994361], [4.8380411, 45.7994705], [4.8380937, 45.7994983], [4.8381202, 45.7995158], [4.8384602, 45.7997733], [4.8386474, 45.7999207], [4.8388603, 45.8001207], [4.8392887, 45.8005239], [4.8394994, 45.8007443], [4.8398848, 45.801169], [4.8402653, 45.8015937], [4.8405864, 45.8019635], [4.8408832, 45.802382], [4.8410682, 45.8027953], [4.8412063, 45.803109], [4.841247, 45.8032167], [4.8393462, 45.8037514], [4.8389673, 45.8038525], [4.8387454, 45.8040352], [4.8383544, 45.8044442], [4.8382367, 45.8046499], [4.838092, 45.8049415], [4.8380274, 45.8051967], [4.837909, 45.8063974], [4.8377367, 45.8069152], [4.837586, 45.8075455], [4.8374485, 45.8077947], [4.8374245, 45.8078382], [4.8373939, 45.8078679], [4.8371231, 45.8081309], [4.8369835, 45.8082628], [4.8367885, 45.8079877], [4.8367487, 45.8079202], [4.836727, 45.8078855], [4.8367038, 45.8078506], [4.8365555, 45.8075924], [4.8362169, 45.8070499], [4.8360319, 45.8066712], [4.8358498, 45.8060511], [4.8357997, 45.8058902], [4.8357111, 45.8056966], [4.8355499, 45.8054603], [4.8351592, 45.8050663], [4.8345431, 45.8043071], [4.8344209, 45.804299], [4.8343162, 45.8043436], [4.8338564, 45.8049116], [4.8337633, 45.8049725], [4.8322374, 45.8055803], [4.8321739, 45.8056116], [4.8321162, 45.8056949], [4.8321001, 45.8057958], [4.8321225, 45.8060945], [4.832135, 45.8062614], [4.8321813, 45.8068071], [4.8321841, 45.8068504], [4.8321632, 45.8069995], [4.8307423, 45.8063205], [4.829861, 45.8058993], [4.8278238, 45.8049257], [4.8278111, 45.8049199], [4.8271304, 45.8045202], [4.8271763, 45.8046926], [4.825598, 45.8046451], [4.8256024, 45.8045097], [4.8253836, 45.8045192], [4.8241583, 45.8045289], [4.8241044, 45.8046881], [4.8237338, 45.8046892], [4.8235434, 45.8046898], [4.8228935, 45.804679], [4.8229091, 45.8046535], [4.8230785, 45.8043469], [4.8231068, 45.8042953], [4.8235289, 45.8035253], [4.8238918, 45.8030529], [4.8238901, 45.8030036], [4.8238375, 45.8020093], [4.8228537, 45.8020328], [4.8223268, 45.8020429], [4.8203344, 45.8021502], [4.8202284, 45.8018128], [4.8201338, 45.8016732], [4.8199045, 45.8007458], [4.8199007, 45.800531], [4.8197408, 45.7999075], [4.8196867, 45.7998197], [4.8195766, 45.7993709], [4.8190977, 45.7993225], [4.8187234, 45.7992792], [4.8183928, 45.799305], [4.8183333, 45.7987879], [4.8182622, 45.7986651], [4.8180619, 45.7985041], [4.8179076, 45.7984658], [4.8178172, 45.7985034], [4.8177197, 45.798583], [4.8175891, 45.7986203], [4.8168763, 45.7984057], [4.8166827, 45.7984121], [4.8166179, 45.7983675], [4.8165982, 45.7982755], [4.8166294, 45.7981299], [4.8164907, 45.7978559], [4.8164864, 45.7976787], [4.8163802, 45.7974939], [4.8163474, 45.7972264], [4.816319, 45.7971984], [4.8162986, 45.7971008], [4.8162091, 45.7969931], [4.8160672, 45.7968012], [4.8159546, 45.7966023], [4.8156818, 45.7963093], [4.8155851, 45.7962629], [4.8154235, 45.7960616], [4.8151349, 45.7958352], [4.8152262, 45.7957737], [4.8148311, 45.7949898], [4.8147688, 45.7948686], [4.8144576, 45.7945588], [4.8143774, 45.7944799], [4.8139946, 45.7942379], [4.8126533, 45.7936633], [4.8126378, 45.7936562], [4.8122875, 45.7935404], [4.8111049, 45.793022], [4.8096283, 45.7924666], [4.809504, 45.792409], [4.8093312, 45.7923107], [4.8090946, 45.7921293], [4.8089261, 45.7919834], [4.8087771, 45.7918069], [4.8086629, 45.7915977], [4.8077502, 45.7891907], [4.8077392, 45.7890867], [4.8073353, 45.7892702], [4.8070631, 45.7890036], [4.8067756, 45.7892417], [4.8067796, 45.7892915], [4.8063937, 45.7895435], [4.8059401, 45.789713], [4.8057569, 45.7897618], [4.8055066, 45.7898431], [4.805273, 45.7899469], [4.8050877, 45.7900525], [4.805014, 45.7901004], [4.8048452, 45.7902132], [4.8045986, 45.7903833], [4.8044278, 45.7905205], [4.8041279, 45.7908298], [4.8040435, 45.7909173], [4.8039121, 45.7910289], [4.8038072, 45.7910895], [4.8037221, 45.7911384], [4.8032156, 45.7913534], [4.8031745, 45.7913213], [4.803077, 45.7913839], [4.8029936, 45.7914651], [4.8028477, 45.7916561], [4.8028119, 45.7916448], [4.8027862, 45.791645], [4.8027725, 45.7916606], [4.8027467, 45.7917845], [4.8027389, 45.7919049], [4.8027195, 45.7919401], [4.8027125, 45.7919499], [4.8027006, 45.7919584], [4.8026839, 45.7919637], [4.802643, 45.7919667], [4.8025484, 45.7919516], [4.8022112, 45.7920411], [4.8022068, 45.7920371], [4.8017638, 45.7916237], [4.8017427, 45.7916116], [4.8017239, 45.7915954], [4.8016679, 45.7915318], [4.801656, 45.7915372], [4.8016432, 45.7915431], [4.8014376, 45.7913449], [4.8013754, 45.79129], [4.8011037, 45.7913858], [4.8008104, 45.7914715], [4.7998494, 45.7915712], [4.7989607, 45.7915415], [4.7973029, 45.7914868], [4.7972775, 45.7915026], [4.7970185, 45.791503], [4.7969687, 45.791487], [4.7969248, 45.7914903], [4.7965133, 45.791578], [4.7964972, 45.7915715], [4.7965605, 45.7913888], [4.7966204, 45.7912718], [4.7967634, 45.7911087], [4.7973151, 45.7904735], [4.7974105, 45.7902304], [4.7975051, 45.7900597], [4.7975331, 45.7898332], [4.7961185, 45.7896089], [4.7941277, 45.7893837], [4.7939751, 45.7893622], [4.7935624, 45.7893187], [4.7934615, 45.7893251], [4.793333, 45.7893624], [4.7930618, 45.7896054], [4.7928448, 45.7897717], [4.7926944, 45.7898912], [4.7925797, 45.7899557], [4.7914676, 45.7904853], [4.7906874, 45.7908468], [4.7905989, 45.790876], [4.7905198, 45.7908618], [4.7904817, 45.7908247], [4.7903181, 45.7906152], [4.7901095, 45.7903567], [4.7896811, 45.7899238], [4.7893613, 45.7902901], [4.788625, 45.7898985], [4.7883278, 45.7897751], [4.7862015, 45.7889053], [4.7858888, 45.7887421], [4.7856848, 45.788595], [4.7853435, 45.7883315], [4.784929, 45.7880692], [4.7842665, 45.7878838], [4.784069, 45.7878098], [4.783995, 45.7877821]]]}}]}